<?xml version="1.0" ?><gpx xmlns="http://www.topografix.com/GPX/1/1" creator="GaiaGPS" version="1.1" xmlns:xsi="http://www.w3.org/2001/XMLSchema-instance" xsi:schemaLocation="http://www.topografix.com/GPX/1/1 http://www.topografix.com/GPX/1/1/gpx.xsd"><trk><name>sphaeropteris australis</name><desc></desc><extensions><line xmlns="http://www.topografix.com/GPX/gpx_style/0/2"><color>F42410</color></line></extensions><trkseg><trkpt lat="-34.156693" lon="151.021129"><ele>15.89390869140625</ele><time>2025-06-10T03:05:09Z</time></trkpt><trkpt lat="-34.156947" lon="151.021454"><ele>11.7169677734375</ele><time>2025-06-10T03:05:16Z</time></trkpt><trkpt lat="-34.156924" lon="151.021467"><ele>24.46904296875</ele><time>2025-06-10T03:05:17Z</time></trkpt><trkpt lat="-34.15693" lon="151.02145"><ele>34.65709228515625</ele><time>2025-06-10T03:05:19Z</time></trkpt><trkpt lat="-34.156953" lon="151.021477"><ele>45.38975830078125</ele><time>2025-06-10T03:05:21Z</time></trkpt><trkpt lat="-34.156984" lon="151.021474"><ele>51.9393798828125</ele><time>2025-06-10T03:05:23Z</time></trkpt><trkpt lat="-34.157004" lon="151.021479"><ele>47.29942626953125</ele><time>2025-06-10T03:05:24Z</time></trkpt><trkpt lat="-34.157056" lon="151.021501"><ele>52.7343017578125</ele><time>2025-06-10T03:05:39Z</time></trkpt><trkpt lat="-34.157077" lon="151.021488"><ele>52.167529296875</ele><time>2025-06-10T03:06:05Z</time></trkpt><trkpt lat="-34.157244" lon="151.021532"><ele>56.130419921875</ele><time>2025-06-10T03:06:06Z</time></trkpt><trkpt lat="-34.157265" lon="151.021551"><ele>56.233203125</ele><time>2025-06-10T03:06:09Z</time></trkpt><trkpt lat="-34.157315" lon="151.021563"><ele>59.3871337890625</ele><time>2025-06-10T03:06:12Z</time></trkpt><trkpt lat="-34.157323" lon="151.021551"><ele>60.00322265625</ele><time>2025-06-10T03:06:13Z</time></trkpt><trkpt lat="-34.157338" lon="151.021522"><ele>60.292041015625</ele><time>2025-06-10T03:06:15Z</time></trkpt><trkpt lat="-34.157289" lon="151.021519"><ele>50.78673095703125</ele><time>2025-06-10T03:06:44Z</time></trkpt><trkpt lat="-34.157215" lon="151.021583"><ele>51.67027587890625</ele><time>2025-06-10T03:06:54Z</time></trkpt><trkpt lat="-34.157211" lon="151.021588"><ele>49.9371826171875</ele><time>2025-06-10T03:06:55Z</time></trkpt><trkpt lat="-34.157187" lon="151.021612"><ele>44.4049560546875</ele><time>2025-06-10T03:06:58Z</time></trkpt><trkpt lat="-34.157186" lon="151.021639"><ele>42.0525390625</ele><time>2025-06-10T03:07:00Z</time></trkpt><trkpt lat="-34.157175" lon="151.021607"><ele>43.0</ele><time>2025-06-10T03:07:12Z</time></trkpt><trkpt lat="-34.157148" lon="151.02161"><ele>41.573046875</ele><time>2025-06-10T03:07:15Z</time></trkpt><trkpt lat="-34.157131" lon="151.021624"><ele>41.06395263671875</ele><time>2025-06-10T03:07:27Z</time></trkpt><trkpt lat="-34.157164" lon="151.021623"><ele>46.17021484375</ele><time>2025-06-10T03:09:59Z</time></trkpt><trkpt lat="-34.15717" lon="151.021631"><ele>46.15025634765625</ele><time>2025-06-10T03:10:00Z</time></trkpt><trkpt lat="-34.157248" lon="151.021617"><ele>45.06590576171875</ele><time>2025-06-10T03:10:08Z</time></trkpt><trkpt lat="-34.157279" lon="151.021621"><ele>47.68681640625</ele><time>2025-06-10T03:10:10Z</time></trkpt><trkpt lat="-34.157315" lon="151.021645"><ele>51.79869384765625</ele><time>2025-06-10T03:10:39Z</time></trkpt><trkpt lat="-34.157337" lon="151.021663"><ele>53.3749267578125</ele><time>2025-06-10T03:10:40Z</time></trkpt><trkpt lat="-34.157459" lon="151.021689"><ele>51.2291748046875</ele><time>2025-06-10T03:10:46Z</time></trkpt><trkpt lat="-34.157519" lon="151.021692"><ele>50.4738037109375</ele><time>2025-06-10T03:11:35Z</time></trkpt><trkpt lat="-34.157528" lon="151.0217"><ele>47.8524658203125</ele><time>2025-06-10T03:11:36Z</time></trkpt><trkpt lat="-34.157564" lon="151.021742"><ele>45.14061279296875</ele><time>2025-06-10T03:11:41Z</time></trkpt><trkpt lat="-34.15759" lon="151.021749"><ele>45.406787109375</ele><time>2025-06-10T03:11:43Z</time></trkpt><trkpt lat="-34.157614" lon="151.021735"><ele>46.8885986328125</ele><time>2025-06-10T03:11:46Z</time></trkpt><trkpt lat="-34.157608" lon="151.021748"><ele>47.95860595703125</ele><time>2025-06-10T03:11:53Z</time></trkpt><trkpt lat="-34.157585" lon="151.02175"><ele>46.1117431640625</ele><time>2025-06-10T03:11:54Z</time></trkpt><trkpt lat="-34.157593" lon="151.021719"><ele>43.87852783203125</ele><time>2025-06-10T03:11:59Z</time></trkpt><trkpt lat="-34.157594" lon="151.021716"><ele>42.7576171875</ele><time>2025-06-10T03:12:00Z</time></trkpt><trkpt lat="-34.157592" lon="151.021708"><ele>43.71068115234375</ele><time>2025-06-10T03:12:01Z</time></trkpt><trkpt lat="-34.157589" lon="151.021737"><ele>40.20048828125</ele><time>2025-06-10T03:12:12Z</time></trkpt><trkpt lat="-34.157655" lon="151.021773"><ele>46.6512939453125</ele><time>2025-06-10T03:12:25Z</time></trkpt><trkpt lat="-34.157693" lon="151.021815"><ele>45.97978515625</ele><time>2025-06-10T03:12:31Z</time></trkpt><trkpt lat="-34.157725" lon="151.021808"><ele>43.80968017578125</ele><time>2025-06-10T03:12:33Z</time></trkpt><trkpt lat="-34.157732" lon="151.021804"><ele>44.7076904296875</ele><time>2025-06-10T03:12:34Z</time></trkpt><trkpt lat="-34.157769" lon="151.021793"><ele>50.43187255859375</ele><time>2025-06-10T03:12:42Z</time></trkpt><trkpt lat="-34.157821" lon="151.021732"><ele>49.6410400390625</ele><time>2025-06-10T03:12:57Z</time></trkpt><trkpt lat="-34.157833" lon="151.021756"><ele>47.023974609375</ele><time>2025-06-10T03:13:08Z</time></trkpt><trkpt lat="-34.157889" lon="151.021744"><ele>47.679736328125</ele><time>2025-06-10T03:13:15Z</time></trkpt><trkpt lat="-34.157895" lon="151.021747"><ele>46.39140625</ele><time>2025-06-10T03:13:16Z</time></trkpt><trkpt lat="-34.157897" lon="151.02178"><ele>44.7430908203125</ele><time>2025-06-10T03:13:32Z</time></trkpt><trkpt lat="-34.157923" lon="151.021778"><ele>43.8439208984375</ele><time>2025-06-10T03:13:40Z</time></trkpt><trkpt lat="-34.157927" lon="151.021808"><ele>45.43638916015625</ele><time>2025-06-10T03:13:52Z</time></trkpt><trkpt lat="-34.157981" lon="151.021768"><ele>48.18858642578125</ele><time>2025-06-10T03:14:01Z</time></trkpt><trkpt lat="-34.15801" lon="151.02177"><ele>50.00010986328125</ele><time>2025-06-10T03:14:15Z</time></trkpt><trkpt lat="-34.158013" lon="151.021769"><ele>52.996142578125</ele><time>2025-06-10T03:14:16Z</time></trkpt><trkpt lat="-34.158026" lon="151.021742"><ele>53.522265625</ele><time>2025-06-10T03:14:30Z</time></trkpt><trkpt lat="-34.158059" lon="151.021716"><ele>55.41759033203125</ele><time>2025-06-10T03:14:34Z</time></trkpt><trkpt lat="-34.158143" lon="151.021709"><ele>56.4957763671875</ele><time>2025-06-10T03:14:41Z</time></trkpt><trkpt lat="-34.158145" lon="151.021712"><ele>56.388232421875</ele><time>2025-06-10T03:14:42Z</time></trkpt><trkpt lat="-34.158066" lon="151.021776"><ele>51.20482177734375</ele><time>2025-06-10T03:14:55Z</time></trkpt><trkpt lat="-34.158072" lon="151.021803"><ele>51.12999267578125</ele><time>2025-06-10T03:14:59Z</time></trkpt><trkpt lat="-34.158147" lon="151.021816"><ele>50.48985595703125</ele><time>2025-06-10T03:15:06Z</time></trkpt><trkpt lat="-34.158153" lon="151.021816"><ele>50.66441650390625</ele><time>2025-06-10T03:15:07Z</time></trkpt><trkpt lat="-34.158176" lon="151.021824"><ele>49.89195556640625</ele><time>2025-06-10T03:15:16Z</time></trkpt><trkpt lat="-34.158224" lon="151.021806"><ele>48.51146240234375</ele><time>2025-06-10T03:15:18Z</time></trkpt><trkpt lat="-34.158247" lon="151.021808"><ele>49.0765869140625</ele><time>2025-06-10T03:15:19Z</time></trkpt><trkpt lat="-34.158268" lon="151.021824"><ele>48.578662109375</ele><time>2025-06-10T03:15:22Z</time></trkpt><trkpt lat="-34.158273" lon="151.021891"><ele>58.18516845703125</ele><time>2025-06-10T03:15:57Z</time></trkpt><trkpt lat="-34.15827" lon="151.021906"><ele>58.66453857421875</ele><time>2025-06-10T03:15:58Z</time></trkpt><trkpt lat="-34.158254" lon="151.021907"><ele>59.11363525390625</ele><time>2025-06-10T03:15:59Z</time></trkpt><trkpt lat="-34.158232" lon="151.021931"><ele>58.489794921875</ele><time>2025-06-10T03:16:04Z</time></trkpt><trkpt lat="-34.158228" lon="151.021963"><ele>56.949267578125</ele><time>2025-06-10T03:16:08Z</time></trkpt><trkpt lat="-34.158244" lon="151.021975"><ele>54.97545166015625</ele><time>2025-06-10T03:16:09Z</time></trkpt><trkpt lat="-34.158266" lon="151.022029"><ele>49.3739501953125</ele><time>2025-06-10T03:16:13Z</time></trkpt><trkpt lat="-34.15829" lon="151.022047"><ele>48.39415283203125</ele><time>2025-06-10T03:16:20Z</time></trkpt><trkpt lat="-34.158292" lon="151.022052"><ele>48.218310546875</ele><time>2025-06-10T03:16:21Z</time></trkpt><trkpt lat="-34.158361" lon="151.022088"><ele>47.8353759765625</ele><time>2025-06-10T03:16:41Z</time></trkpt><trkpt lat="-34.158364" lon="151.022119"><ele>41.23289794921875</ele><time>2025-06-10T03:16:52Z</time></trkpt><trkpt lat="-34.158355" lon="151.022146"><ele>41.7025634765625</ele><time>2025-06-10T03:17:01Z</time></trkpt><trkpt lat="-34.158365" lon="151.022175"><ele>45.27830810546875</ele><time>2025-06-10T03:17:08Z</time></trkpt><trkpt lat="-34.158388" lon="151.022188"><ele>46.994677734375</ele><time>2025-06-10T03:17:12Z</time></trkpt><trkpt lat="-34.158398" lon="151.022172"><ele>44.219287109375</ele><time>2025-06-10T03:17:13Z</time></trkpt><trkpt lat="-34.158406" lon="151.022154"><ele>43.5104248046875</ele><time>2025-06-10T03:17:14Z</time></trkpt><trkpt lat="-34.158474" lon="151.022145"><ele>44.45872802734375</ele><time>2025-06-10T03:17:24Z</time></trkpt><trkpt lat="-34.158498" lon="151.022153"><ele>44.98179931640625</ele><time>2025-06-10T03:17:28Z</time></trkpt><trkpt lat="-34.158493" lon="151.022185"><ele>48.18895263671875</ele><time>2025-06-10T03:17:34Z</time></trkpt><trkpt lat="-34.158501" lon="151.022214"><ele>54.02122802734375</ele><time>2025-06-10T03:17:46Z</time></trkpt><trkpt lat="-34.158486" lon="151.022247"><ele>47.63951416015625</ele><time>2025-06-10T03:17:56Z</time></trkpt><trkpt lat="-34.158492" lon="151.02225"><ele>47.62840576171875</ele><time>2025-06-10T03:17:57Z</time></trkpt><trkpt lat="-34.158508" lon="151.022271"><ele>46.4646484375</ele><time>2025-06-10T03:18:03Z</time></trkpt><trkpt lat="-34.158486" lon="151.022288"><ele>45.2684814453125</ele><time>2025-06-10T03:18:13Z</time></trkpt><trkpt lat="-34.15851" lon="151.022289"><ele>48.78697509765625</ele><time>2025-06-10T03:18:22Z</time></trkpt><trkpt lat="-34.158513" lon="151.02235"><ele>57.52977294921875</ele><time>2025-06-10T03:18:43Z</time></trkpt><trkpt lat="-34.158491" lon="151.022332"><ele>60.17674560546875</ele><time>2025-06-10T03:18:48Z</time></trkpt><trkpt lat="-34.158462" lon="151.022344"><ele>56.5211669921875</ele><time>2025-06-10T03:18:54Z</time></trkpt><trkpt lat="-34.158457" lon="151.022351"><ele>54.8488037109375</ele><time>2025-06-10T03:18:55Z</time></trkpt><trkpt lat="-34.158451" lon="151.022355"><ele>55.23961181640625</ele><time>2025-06-10T03:18:56Z</time></trkpt><trkpt lat="-34.158459" lon="151.02238"><ele>53.966357421875</ele><time>2025-06-10T03:18:59Z</time></trkpt><trkpt lat="-34.15852" lon="151.022421"><ele>53.86192626953125</ele><time>2025-06-10T03:19:05Z</time></trkpt><trkpt lat="-34.158543" lon="151.022475"><ele>53.32066650390625</ele><time>2025-06-10T03:19:11Z</time></trkpt><trkpt lat="-34.158572" lon="151.022472"><ele>53.7789794921875</ele><time>2025-06-10T03:19:14Z</time></trkpt><trkpt lat="-34.158575" lon="151.022467"><ele>54.12291259765625</ele><time>2025-06-10T03:19:15Z</time></trkpt><trkpt lat="-34.158617" lon="151.022495"><ele>56.08995361328125</ele><time>2025-06-10T03:19:20Z</time></trkpt><trkpt lat="-34.158639" lon="151.022482"><ele>56.684375</ele><time>2025-06-10T03:19:25Z</time></trkpt><trkpt lat="-34.158705" lon="151.022481"><ele>55.5179931640625</ele><time>2025-06-10T03:19:31Z</time></trkpt><trkpt lat="-34.158776" lon="151.02251"><ele>54.4972412109375</ele><time>2025-06-10T03:19:37Z</time></trkpt><trkpt lat="-34.158787" lon="151.022506"><ele>54.158984375</ele><time>2025-06-10T03:19:38Z</time></trkpt><trkpt lat="-34.158793" lon="151.022495"><ele>52.5819580078125</ele><time>2025-06-10T03:19:39Z</time></trkpt><trkpt lat="-34.158802" lon="151.022479"><ele>52.29014892578125</ele><time>2025-06-10T03:19:40Z</time></trkpt><trkpt lat="-34.158826" lon="151.022474"><ele>51.82139892578125</ele><time>2025-06-10T03:19:42Z</time></trkpt><trkpt lat="-34.158839" lon="151.022452"><ele>51.24803466796875</ele><time>2025-06-10T03:19:49Z</time></trkpt><trkpt lat="-34.15886" lon="151.022497"><ele>50.651416015625</ele><time>2025-06-10T03:20:03Z</time></trkpt><trkpt lat="-34.158902" lon="151.022498"><ele>52.09361572265625</ele><time>2025-06-10T03:20:06Z</time></trkpt><trkpt lat="-34.158899" lon="151.022528"><ele>48.0861083984375</ele><time>2025-06-10T03:20:10Z</time></trkpt><trkpt lat="-34.158867" lon="151.022516"><ele>44.7133056640625</ele><time>2025-06-10T03:20:12Z</time></trkpt><trkpt lat="-34.158866" lon="151.022511"><ele>44.972705078125</ele><time>2025-06-10T03:20:13Z</time></trkpt><trkpt lat="-34.158879" lon="151.022548"><ele>49.68699951171875</ele><time>2025-06-10T03:20:18Z</time></trkpt><trkpt lat="-34.158905" lon="151.022548"><ele>50.0668212890625</ele><time>2025-06-10T03:20:20Z</time></trkpt><trkpt lat="-34.158905" lon="151.02252"><ele>50.02098388671875</ele><time>2025-06-10T03:20:29Z</time></trkpt><trkpt lat="-34.158882" lon="151.022474"><ele>48.5662109375</ele><time>2025-06-10T03:20:34Z</time></trkpt><trkpt lat="-34.158856" lon="151.022465"><ele>50.6378662109375</ele><time>2025-06-10T03:20:43Z</time></trkpt><trkpt lat="-34.158846" lon="151.022435"><ele>51.80125732421875</ele><time>2025-06-10T03:21:03Z</time></trkpt><trkpt lat="-34.158846" lon="151.022434"><ele>51.8336669921875</ele><time>2025-06-10T03:21:04Z</time></trkpt><trkpt lat="-34.158843" lon="151.022458"><ele>54.04625244140625</ele><time>2025-06-10T03:21:11Z</time></trkpt><trkpt lat="-34.15886" lon="151.022482"><ele>50.6720458984375</ele><time>2025-06-10T03:21:13Z</time></trkpt><trkpt lat="-34.158884" lon="151.022496"><ele>51.4996826171875</ele><time>2025-06-10T03:21:15Z</time></trkpt><trkpt lat="-34.158904" lon="151.022493"><ele>52.57713623046875</ele><time>2025-06-10T03:21:17Z</time></trkpt><trkpt lat="-34.158961" lon="151.022547"><ele>51.0375244140625</ele><time>2025-06-10T03:21:24Z</time></trkpt><trkpt lat="-34.15896" lon="151.022558"><ele>50.281787109375</ele><time>2025-06-10T03:21:25Z</time></trkpt><trkpt lat="-34.158964" lon="151.022571"><ele>50.51060791015625</ele><time>2025-06-10T03:21:26Z</time></trkpt><trkpt lat="-34.158987" lon="151.022557"><ele>48.15416259765625</ele><time>2025-06-10T03:21:33Z</time></trkpt><trkpt lat="-34.159035" lon="151.022555"><ele>47.27623291015625</ele><time>2025-06-10T03:21:49Z</time></trkpt><trkpt lat="-34.159047" lon="151.022533"><ele>47.58531494140625</ele><time>2025-06-10T03:21:56Z</time></trkpt><trkpt lat="-34.159025" lon="151.022547"><ele>47.0150634765625</ele><time>2025-06-10T03:22:05Z</time></trkpt><trkpt lat="-34.159026" lon="151.022612"><ele>48.390185546875</ele><time>2025-06-10T03:22:11Z</time></trkpt><trkpt lat="-34.159024" lon="151.022629"><ele>48.5096923828125</ele><time>2025-06-10T03:22:12Z</time></trkpt><trkpt lat="-34.159015" lon="151.022643"><ele>48.6677734375</ele><time>2025-06-10T03:22:13Z</time></trkpt><trkpt lat="-34.159066" lon="151.02257"><ele>49.701220703125</ele><time>2025-06-10T03:22:40Z</time></trkpt><trkpt lat="-34.159104" lon="151.02255"><ele>50.21251220703125</ele><time>2025-06-10T03:22:43Z</time></trkpt><trkpt lat="-34.159104" lon="151.02255"><ele>52.88365478515625</ele><time>2025-06-10T03:22:44Z</time></trkpt><trkpt lat="-34.1591" lon="151.022545"><ele>53.7504150390625</ele><time>2025-06-10T03:22:45Z</time></trkpt><trkpt lat="-34.159137" lon="151.022527"><ele>55.8322021484375</ele><time>2025-06-10T03:22:56Z</time></trkpt><trkpt lat="-34.159156" lon="151.022538"><ele>56.9020263671875</ele><time>2025-06-10T03:22:58Z</time></trkpt><trkpt lat="-34.159154" lon="151.022567"><ele>56.63255615234375</ele><time>2025-06-10T03:23:06Z</time></trkpt><trkpt lat="-34.159138" lon="151.022577"><ele>55.5531494140625</ele><time>2025-06-10T03:23:08Z</time></trkpt><trkpt lat="-34.159126" lon="151.022602"><ele>53.86845703125</ele><time>2025-06-10T03:23:11Z</time></trkpt><trkpt lat="-34.159124" lon="151.022645"><ele>54.625048828125</ele><time>2025-06-10T03:23:15Z</time></trkpt><trkpt lat="-34.159127" lon="151.022648"><ele>55.4548828125</ele><time>2025-06-10T03:23:16Z</time></trkpt><trkpt lat="-34.159152" lon="151.022648"><ele>53.3439208984375</ele><time>2025-06-10T03:23:24Z</time></trkpt><trkpt lat="-34.159178" lon="151.022683"><ele>58.90904541015625</ele><time>2025-06-10T03:23:40Z</time></trkpt><trkpt lat="-34.159177" lon="151.022772"><ele>58.2157470703125</ele><time>2025-06-10T03:24:15Z</time></trkpt><trkpt lat="-34.1592" lon="151.02278"><ele>53.08677978515625</ele><time>2025-06-10T03:24:21Z</time></trkpt><trkpt lat="-34.15921" lon="151.022772"><ele>50.6473876953125</ele><time>2025-06-10T03:24:22Z</time></trkpt><trkpt lat="-34.159218" lon="151.022767"><ele>50.65556640625</ele><time>2025-06-10T03:24:23Z</time></trkpt><trkpt lat="-34.159237" lon="151.022787"><ele>52.26109619140625</ele><time>2025-06-10T03:24:28Z</time></trkpt><trkpt lat="-34.159262" lon="151.022793"><ele>52.276171875</ele><time>2025-06-10T03:24:31Z</time></trkpt><trkpt lat="-34.159272" lon="151.022766"><ele>53.2679931640625</ele><time>2025-06-10T03:24:33Z</time></trkpt><trkpt lat="-34.159331" lon="151.022784"><ele>53.2760498046875</ele><time>2025-06-10T03:25:26Z</time></trkpt><trkpt lat="-34.159328" lon="151.022807"><ele>54.82744140625</ele><time>2025-06-10T03:25:29Z</time></trkpt><trkpt lat="-34.159312" lon="151.022828"><ele>54.9647705078125</ele><time>2025-06-10T03:25:30Z</time></trkpt><trkpt lat="-34.159306" lon="151.022836"><ele>55.77684326171875</ele><time>2025-06-10T03:25:31Z</time></trkpt><trkpt lat="-34.159246" lon="151.022904"><ele>51.3207275390625</ele><time>2025-06-10T03:25:45Z</time></trkpt><trkpt lat="-34.159251" lon="151.022932"><ele>51.189990234375</ele><time>2025-06-10T03:25:47Z</time></trkpt><trkpt lat="-34.15932" lon="151.02294"><ele>52.6957275390625</ele><time>2025-06-10T03:25:56Z</time></trkpt><trkpt lat="-34.159332" lon="151.022931"><ele>51.6814453125</ele><time>2025-06-10T03:25:57Z</time></trkpt><trkpt lat="-34.159344" lon="151.022922"><ele>52.9406005859375</ele><time>2025-06-10T03:25:58Z</time></trkpt><trkpt lat="-34.159362" lon="151.022915"><ele>53.5525390625</ele><time>2025-06-10T03:25:59Z</time></trkpt><trkpt lat="-34.159342" lon="151.022827"><ele>53.6788818359375</ele><time>2025-06-10T03:26:24Z</time></trkpt><trkpt lat="-34.159321" lon="151.022841"><ele>55.6908447265625</ele><time>2025-06-10T03:26:28Z</time></trkpt><trkpt lat="-34.159366" lon="151.022908"><ele>51.84105224609375</ele><time>2025-06-10T03:26:33Z</time></trkpt><trkpt lat="-34.159378" lon="151.022919"><ele>50.9462158203125</ele><time>2025-06-10T03:26:34Z</time></trkpt><trkpt lat="-34.159402" lon="151.022948"><ele>55.00169677734375</ele><time>2025-06-10T03:26:37Z</time></trkpt><trkpt lat="-34.159444" lon="151.023033"><ele>53.65166015625</ele><time>2025-06-10T03:26:47Z</time></trkpt><trkpt lat="-34.159422" lon="151.023051"><ele>48.43931884765625</ele><time>2025-06-10T03:27:08Z</time></trkpt><trkpt lat="-34.159414" lon="151.023081"><ele>48.1571533203125</ele><time>2025-06-10T03:27:11Z</time></trkpt><trkpt lat="-34.159385" lon="151.023089"><ele>46.18455810546875</ele><time>2025-06-10T03:27:16Z</time></trkpt><trkpt lat="-34.159383" lon="151.023099"><ele>48.1964599609375</ele><time>2025-06-10T03:27:17Z</time></trkpt><trkpt lat="-34.159368" lon="151.023175"><ele>53.6476318359375</ele><time>2025-06-10T03:27:27Z</time></trkpt><trkpt lat="-34.15938" lon="151.023189"><ele>51.57677001953125</ele><time>2025-06-10T03:27:29Z</time></trkpt><trkpt lat="-34.159454" lon="151.023214"><ele>50.594775390625</ele><time>2025-06-10T03:27:43Z</time></trkpt><trkpt lat="-34.159459" lon="151.023215"><ele>52.387744140625</ele><time>2025-06-10T03:27:44Z</time></trkpt><trkpt lat="-34.15949" lon="151.023232"><ele>53.9027587890625</ele><time>2025-06-10T03:27:50Z</time></trkpt><trkpt lat="-34.159496" lon="151.023171"><ele>50.6942626953125</ele><time>2025-06-10T03:28:05Z</time></trkpt><trkpt lat="-34.159547" lon="151.023163"><ele>54.45054931640625</ele><time>2025-06-10T03:29:54Z</time></trkpt><trkpt lat="-34.159564" lon="151.023148"><ele>54.96593017578125</ele><time>2025-06-10T03:29:57Z</time></trkpt><trkpt lat="-34.159571" lon="151.023108"><ele>58.0831787109375</ele><time>2025-06-10T03:30:00Z</time></trkpt><trkpt lat="-34.159559" lon="151.023107"><ele>57.54246826171875</ele><time>2025-06-10T03:30:01Z</time></trkpt><trkpt lat="-34.159554" lon="151.023095"><ele>57.49376220703125</ele><time>2025-06-10T03:30:02Z</time></trkpt><trkpt lat="-34.159526" lon="151.023145"><ele>60.71519775390625</ele><time>2025-06-10T03:30:29Z</time></trkpt><trkpt lat="-34.159533" lon="151.023174"><ele>61.86748046875</ele><time>2025-06-10T03:30:33Z</time></trkpt><trkpt lat="-34.159515" lon="151.023187"><ele>65.26182861328125</ele><time>2025-06-10T03:31:06Z</time></trkpt><trkpt lat="-34.159466" lon="151.023171"><ele>68.38896484375</ele><time>2025-06-10T03:32:07Z</time></trkpt><trkpt lat="-34.159486" lon="151.023143"><ele>67.5502197265625</ele><time>2025-06-10T03:32:21Z</time></trkpt><trkpt lat="-34.159497" lon="151.023136"><ele>68.095751953125</ele><time>2025-06-10T03:32:22Z</time></trkpt><trkpt lat="-34.159495" lon="151.023193"><ele>62.861376953125</ele><time>2025-06-10T03:32:36Z</time></trkpt><trkpt lat="-34.159505" lon="151.023222"><ele>63.2216064453125</ele><time>2025-06-10T03:32:42Z</time></trkpt><trkpt lat="-34.159563" lon="151.023169"><ele>69.1615478515625</ele><time>2025-06-10T03:33:01Z</time></trkpt><trkpt lat="-34.159527" lon="151.023156"><ele>68.06480712890625</ele><time>2025-06-10T03:33:09Z</time></trkpt><trkpt lat="-34.159521" lon="151.023159"><ele>67.1771728515625</ele><time>2025-06-10T03:33:10Z</time></trkpt><trkpt lat="-34.159506" lon="151.023187"><ele>65.30650634765625</ele><time>2025-06-10T03:33:16Z</time></trkpt><trkpt lat="-34.159522" lon="151.023183"><ele>66.49522705078125</ele><time>2025-06-10T03:33:30Z</time></trkpt><trkpt lat="-34.159536" lon="151.023158"><ele>69.35771484375</ele><time>2025-06-10T03:33:33Z</time></trkpt><trkpt lat="-34.159556" lon="151.023212"><ele>66.76195068359375</ele><time>2025-06-10T03:33:42Z</time></trkpt><trkpt lat="-34.15953" lon="151.023203"><ele>67.92747802734375</ele><time>2025-06-10T03:33:55Z</time></trkpt><trkpt lat="-34.159543" lon="151.023235"><ele>67.92369384765625</ele><time>2025-06-10T03:33:59Z</time></trkpt><trkpt lat="-34.159548" lon="151.023245"><ele>68.19041748046875</ele><time>2025-06-10T03:34:00Z</time></trkpt><trkpt lat="-34.15956" lon="151.023227"><ele>69.1229736328125</ele><time>2025-06-10T03:34:07Z</time></trkpt><trkpt lat="-34.159548" lon="151.023205"><ele>67.75718994140625</ele><time>2025-06-10T03:34:31Z</time></trkpt><trkpt lat="-34.159489" lon="151.023154"><ele>74.23033447265625</ele><time>2025-06-10T03:35:17Z</time></trkpt><trkpt lat="-34.159514" lon="151.02315"><ele>71.64744873046875</ele><time>2025-06-10T03:35:34Z</time></trkpt><trkpt lat="-34.159536" lon="151.02316"><ele>73.21409912109375</ele><time>2025-06-10T03:35:41Z</time></trkpt><trkpt lat="-34.159546" lon="151.02314"><ele>73.70823974609375</ele><time>2025-06-10T03:35:42Z</time></trkpt><trkpt lat="-34.159545" lon="151.023128"><ele>73.279833984375</ele><time>2025-06-10T03:35:43Z</time></trkpt><trkpt lat="-34.159523" lon="151.023133"><ele>72.78282470703125</ele><time>2025-06-10T03:35:47Z</time></trkpt><trkpt lat="-34.159492" lon="151.023157"><ele>72.5641357421875</ele><time>2025-06-10T03:35:49Z</time></trkpt><trkpt lat="-34.159471" lon="151.023143"><ele>70.1619140625</ele><time>2025-06-10T03:36:01Z</time></trkpt><trkpt lat="-34.159489" lon="151.023142"><ele>70.812548828125</ele><time>2025-06-10T03:36:14Z</time></trkpt><trkpt lat="-34.159529" lon="151.023106"><ele>70.48594970703125</ele><time>2025-06-10T03:36:18Z</time></trkpt><trkpt lat="-34.159529" lon="151.023109"><ele>70.33922119140625</ele><time>2025-06-10T03:36:19Z</time></trkpt><trkpt lat="-34.159516" lon="151.023141"><ele>70.5814697265625</ele><time>2025-06-10T03:36:24Z</time></trkpt><trkpt lat="-34.159519" lon="151.023172"><ele>66.81712646484375</ele><time>2025-06-10T03:36:41Z</time></trkpt><trkpt lat="-34.159535" lon="151.023165"><ele>67.553271484375</ele><time>2025-06-10T03:36:43Z</time></trkpt><trkpt lat="-34.159519" lon="151.023173"><ele>68.90928955078125</ele><time>2025-06-10T03:36:57Z</time></trkpt><trkpt lat="-34.159513" lon="151.023203"><ele>69.7440673828125</ele><time>2025-06-10T03:36:59Z</time></trkpt><trkpt lat="-34.159519" lon="151.023172"><ele>77.3800537109375</ele><time>2025-06-10T03:37:11Z</time></trkpt><trkpt lat="-34.15954" lon="151.023149"><ele>80.59031982421875</ele><time>2025-06-10T03:37:21Z</time></trkpt><trkpt lat="-34.159545" lon="151.023144"><ele>81.2408935546875</ele><time>2025-06-10T03:37:22Z</time></trkpt><trkpt lat="-34.159585" lon="151.023175"><ele>81.49107666015625</ele><time>2025-06-10T03:37:37Z</time></trkpt><trkpt lat="-34.159601" lon="151.023165"><ele>75.5719482421875</ele><time>2025-06-10T03:37:47Z</time></trkpt><trkpt lat="-34.159566" lon="151.023207"><ele>73.7714111328125</ele><time>2025-06-10T03:38:00Z</time></trkpt><trkpt lat="-34.159573" lon="151.023188"><ele>77.03642578125</ele><time>2025-06-10T03:38:07Z</time></trkpt><trkpt lat="-34.159601" lon="151.023177"><ele>74.689990234375</ele><time>2025-06-10T03:38:09Z</time></trkpt><trkpt lat="-34.159616" lon="151.023178"><ele>75.26951904296875</ele><time>2025-06-10T03:38:10Z</time></trkpt><trkpt lat="-34.159654" lon="151.023179"><ele>73.66209716796875</ele><time>2025-06-10T03:38:16Z</time></trkpt><trkpt lat="-34.159676" lon="151.02323"><ele>73.86436767578125</ele><time>2025-06-10T03:38:23Z</time></trkpt><trkpt lat="-34.159676" lon="151.023257"><ele>74.0505859375</ele><time>2025-06-10T03:38:25Z</time></trkpt><trkpt lat="-34.159727" lon="151.023296"><ele>71.27501220703125</ele><time>2025-06-10T03:38:31Z</time></trkpt><trkpt lat="-34.159729" lon="151.023319"><ele>73.38304443359375</ele><time>2025-06-10T03:38:32Z</time></trkpt><trkpt lat="-34.159735" lon="151.023331"><ele>73.7601806640625</ele><time>2025-06-10T03:38:33Z</time></trkpt><trkpt lat="-34.159738" lon="151.02334"><ele>74.15263671875</ele><time>2025-06-10T03:38:34Z</time></trkpt><trkpt lat="-34.15974" lon="151.023314"><ele>75.18394775390625</ele><time>2025-06-10T03:39:00Z</time></trkpt><trkpt lat="-34.159764" lon="151.023324"><ele>77.272509765625</ele><time>2025-06-10T03:39:04Z</time></trkpt><trkpt lat="-34.159746" lon="151.023339"><ele>72.96177978515625</ele><time>2025-06-10T03:39:09Z</time></trkpt><trkpt lat="-34.159725" lon="151.023326"><ele>75.064990234375</ele><time>2025-06-10T03:39:11Z</time></trkpt></trkseg></trk></gpx>