<?xml version="1.0" ?><gpx xmlns="http://www.topografix.com/GPX/1/1" creator="GaiaGPS" version="1.1" xmlns:xsi="http://www.w3.org/2001/XMLSchema-instance" xsi:schemaLocation="http://www.topografix.com/GPX/1/1 http://www.topografix.com/GPX/1/1/gpx.xsd"><trk><name>centrolepis fascicularis</name><desc></desc><extensions><line xmlns="http://www.topografix.com/GPX/gpx_style/0/2"><color>FF9D00</color></line></extensions><trkseg><trkpt lat="-34.114926" lon="151.068389"><ele>103.3753662109375</ele><time>2025-07-14T02:07:24Z</time></trkpt><trkpt lat="-34.11493" lon="151.068398"><ele>80.0</ele><time>2025-07-14T02:07:27Z</time></trkpt><trkpt lat="-34.114938" lon="151.06837"><ele>80.67235107421875</ele><time>2025-07-14T02:07:33Z</time></trkpt><trkpt lat="-34.114938" lon="151.06837"><ele>80.840869140625</ele><time>2025-07-14T02:07:34Z</time></trkpt><trkpt lat="-34.114922" lon="151.068354"><ele>80.3219482421875</ele><time>2025-07-14T02:07:43Z</time></trkpt><trkpt lat="-34.114905" lon="151.068355"><ele>80.6273681640625</ele><time>2025-07-14T02:07:44Z</time></trkpt><trkpt lat="-34.114883" lon="151.068304"><ele>76.365771484375</ele><time>2025-07-14T02:07:57Z</time></trkpt><trkpt lat="-34.114861" lon="151.068288"><ele>76.52275390625</ele><time>2025-07-14T02:07:59Z</time></trkpt><trkpt lat="-34.114839" lon="151.068276"><ele>73.8605224609375</ele><time>2025-07-14T02:08:43Z</time></trkpt><trkpt lat="-34.11481" lon="151.068281"><ele>71.56578369140625</ele><time>2025-07-14T02:08:48Z</time></trkpt><trkpt lat="-34.114806" lon="151.068274"><ele>71.29918212890625</ele><time>2025-07-14T02:08:49Z</time></trkpt><trkpt lat="-34.114656" lon="151.068234"><ele>69.94688720703125</ele><time>2025-07-14T02:10:54Z</time></trkpt><trkpt lat="-34.114635" lon="151.06821"><ele>67.89061279296875</ele><time>2025-07-14T02:11:13Z</time></trkpt><trkpt lat="-34.114637" lon="151.068215"><ele>67.70506591796875</ele><time>2025-07-14T02:11:14Z</time></trkpt><trkpt lat="-34.114589" lon="151.068201"><ele>66.14708251953125</ele><time>2025-07-14T02:11:29Z</time></trkpt><trkpt lat="-34.114565" lon="151.068157"><ele>63.03740234375</ele><time>2025-07-14T02:11:55Z</time></trkpt><trkpt lat="-34.114484" lon="151.068141"><ele>64.0426513671875</ele><time>2025-07-14T02:12:30Z</time></trkpt><trkpt lat="-34.114482" lon="151.068137"><ele>63.25596923828125</ele><time>2025-07-14T02:12:31Z</time></trkpt><trkpt lat="-34.11441" lon="151.068087"><ele>61.6439453125</ele><time>2025-07-14T02:13:16Z</time></trkpt><trkpt lat="-34.114383" lon="151.068088"><ele>64.49715576171874</ele><time>2025-07-14T02:13:19Z</time></trkpt><trkpt lat="-34.114346" lon="151.068008"><ele>69.79744873046874</ele><time>2025-07-14T02:13:27Z</time></trkpt><trkpt lat="-34.114344" lon="151.068005"><ele>69.81728515625</ele><time>2025-07-14T02:13:28Z</time></trkpt><trkpt lat="-34.114295" lon="151.067983"><ele>67.66842041015624</ele><time>2025-07-14T02:13:39Z</time></trkpt><trkpt lat="-34.114274" lon="151.067962"><ele>70.4658447265625</ele><time>2025-07-14T02:14:07Z</time></trkpt><trkpt lat="-34.114266" lon="151.067989"><ele>70.99447021484374</ele><time>2025-07-14T02:14:53Z</time></trkpt><trkpt lat="-34.114278" lon="151.068018"><ele>71.249658203125</ele><time>2025-07-14T02:15:04Z</time></trkpt><trkpt lat="-34.1143" lon="151.068011"><ele>72.38857421875</ele><time>2025-07-14T02:15:14Z</time></trkpt><trkpt lat="-34.114324" lon="151.068045"><ele>71.85927734375</ele><time>2025-07-14T02:15:21Z</time></trkpt><trkpt lat="-34.114326" lon="151.068056"><ele>72.5017333984375</ele><time>2025-07-14T02:15:22Z</time></trkpt><trkpt lat="-34.114326" lon="151.068066"><ele>72.9201904296875</ele><time>2025-07-14T02:15:23Z</time></trkpt><trkpt lat="-34.114349" lon="151.068078"><ele>72.0351806640625</ele><time>2025-07-14T02:15:34Z</time></trkpt><trkpt lat="-34.114351" lon="151.068107"><ele>65.53310546875</ele><time>2025-07-14T02:15:43Z</time></trkpt><trkpt lat="-34.114395" lon="151.068092"><ele>62.999169921875</ele><time>2025-07-14T02:15:56Z</time></trkpt><trkpt lat="-34.114398" lon="151.068123"><ele>64.4433837890625</ele><time>2025-07-14T02:16:28Z</time></trkpt><trkpt lat="-34.114411" lon="151.068147"><ele>66.77608642578124</ele><time>2025-07-14T02:16:59Z</time></trkpt><trkpt lat="-34.114436" lon="151.068162"><ele>66.6700927734375</ele><time>2025-07-14T02:17:18Z</time></trkpt><trkpt lat="-34.114436" lon="151.068162"><ele>67.10911865234375</ele><time>2025-07-14T02:17:19Z</time></trkpt><trkpt lat="-34.114478" lon="151.068177"><ele>68.0701171875</ele><time>2025-07-14T02:18:50Z</time></trkpt><trkpt lat="-34.114483" lon="151.068209"><ele>67.78502197265625</ele><time>2025-07-14T02:19:10Z</time></trkpt><trkpt lat="-34.114509" lon="151.068213"><ele>68.11668701171875</ele><time>2025-07-14T02:21:25Z</time></trkpt><trkpt lat="-34.114522" lon="151.068237"><ele>72.21910400390625</ele><time>2025-07-14T02:22:03Z</time></trkpt><trkpt lat="-34.114548" lon="151.068231"><ele>73.66856689453125</ele><time>2025-07-14T02:23:13Z</time></trkpt><trkpt lat="-34.114578" lon="151.068204"><ele>74.48515625</ele><time>2025-07-14T02:23:16Z</time></trkpt><trkpt lat="-34.114583" lon="151.068199"><ele>75.64586181640625</ele><time>2025-07-14T02:23:17Z</time></trkpt><trkpt lat="-34.114629" lon="151.068238"><ele>70.35765380859375</ele><time>2025-07-14T02:23:43Z</time></trkpt><trkpt lat="-34.114678" lon="151.068249"><ele>65.51231689453125</ele><time>2025-07-14T02:24:44Z</time></trkpt><trkpt lat="-34.1147" lon="151.068245"><ele>65.42662353515625</ele><time>2025-07-14T02:25:32Z</time></trkpt><trkpt lat="-34.114724" lon="151.068257"><ele>63.465869140625</ele><time>2025-07-14T02:25:36Z</time></trkpt><trkpt lat="-34.114748" lon="151.068236"><ele>66.90220947265625</ele><time>2025-07-14T02:25:50Z</time></trkpt><trkpt lat="-34.11475" lon="151.068238"><ele>66.936572265625</ele><time>2025-07-14T02:25:51Z</time></trkpt><trkpt lat="-34.114769" lon="151.068263"><ele>67.5489990234375</ele><time>2025-07-14T02:26:26Z</time></trkpt><trkpt lat="-34.114795" lon="151.06827"><ele>68.18919677734375</ele><time>2025-07-14T02:26:37Z</time></trkpt><trkpt lat="-34.114819" lon="151.068257"><ele>69.10625</ele><time>2025-07-14T02:26:39Z</time></trkpt><trkpt lat="-34.114886" lon="151.06826"><ele>73.214892578125</ele><time>2025-07-14T02:27:15Z</time></trkpt><trkpt lat="-34.114861" lon="151.068281"><ele>70.05870361328125</ele><time>2025-07-14T02:27:36Z</time></trkpt><trkpt lat="-34.11486" lon="151.068282"><ele>70.07969970703125</ele><time>2025-07-14T02:27:37Z</time></trkpt><trkpt lat="-34.114905" lon="151.068258"><ele>76.14293212890625</ele><time>2025-07-14T02:28:26Z</time></trkpt><trkpt lat="-34.11493" lon="151.068261"><ele>76.0310546875</ele><time>2025-07-14T02:28:28Z</time></trkpt><trkpt lat="-34.114954" lon="151.068248"><ele>74.7191650390625</ele><time>2025-07-14T02:28:35Z</time></trkpt><trkpt lat="-34.114941" lon="151.068221"><ele>74.14873046875</ele><time>2025-07-14T02:28:44Z</time></trkpt><trkpt lat="-34.114966" lon="151.068215"><ele>73.61796875</ele><time>2025-07-14T02:28:50Z</time></trkpt><trkpt lat="-34.114998" lon="151.068229"><ele>72.3396484375</ele><time>2025-07-14T02:29:05Z</time></trkpt><trkpt lat="-34.115002" lon="151.068233"><ele>72.31114501953125</ele><time>2025-07-14T02:29:06Z</time></trkpt><trkpt lat="-34.115025" lon="151.06825"><ele>72.8080322265625</ele><time>2025-07-14T02:29:12Z</time></trkpt><trkpt lat="-34.115026" lon="151.068288"><ele>76.08067626953125</ele><time>2025-07-14T02:29:22Z</time></trkpt><trkpt lat="-34.115007" lon="151.068313"><ele>73.71971435546875</ele><time>2025-07-14T02:29:23Z</time></trkpt><trkpt lat="-34.115005" lon="151.068286"><ele>73.84703369140625</ele><time>2025-07-14T02:29:35Z</time></trkpt><trkpt lat="-34.115018" lon="151.068265"><ele>81.84404296875</ele><time>2025-07-14T02:30:04Z</time></trkpt><trkpt lat="-34.11502" lon="151.068288"><ele>80.75206298828125</ele><time>2025-07-14T02:30:07Z</time></trkpt><trkpt lat="-34.115011" lon="151.068299"><ele>79.25322265625</ele><time>2025-07-14T02:30:08Z</time></trkpt><trkpt lat="-34.115003" lon="151.068314"><ele>78.1796142578125</ele><time>2025-07-14T02:30:09Z</time></trkpt><trkpt lat="-34.114984" lon="151.06833"><ele>77.29576416015625</ele><time>2025-07-14T02:30:11Z</time></trkpt><trkpt lat="-34.114961" lon="151.068333"><ele>76.3622314453125</ele><time>2025-07-14T02:30:13Z</time></trkpt><trkpt lat="-34.114948" lon="151.068306"><ele>74.319873046875</ele><time>2025-07-14T02:30:19Z</time></trkpt><trkpt lat="-34.114882" lon="151.068294"><ele>73.09947509765625</ele><time>2025-07-14T02:30:35Z</time></trkpt><trkpt lat="-34.114854" lon="151.068303"><ele>74.197802734375</ele><time>2025-07-14T02:30:38Z</time></trkpt><trkpt lat="-34.114849" lon="151.068309"><ele>74.13017578125</ele><time>2025-07-14T02:30:39Z</time></trkpt><trkpt lat="-34.114826" lon="151.068328"><ele>75.28251953125</ele><time>2025-07-14T02:30:45Z</time></trkpt><trkpt lat="-34.114754" lon="151.068316"><ele>74.66258544921875</ele><time>2025-07-14T02:31:05Z</time></trkpt><trkpt lat="-34.114742" lon="151.068289"><ele>73.34300537109375</ele><time>2025-07-14T02:31:28Z</time></trkpt><trkpt lat="-34.114692" lon="151.068266"><ele>72.83372802734375</ele><time>2025-07-14T02:31:39Z</time></trkpt><trkpt lat="-34.114692" lon="151.068265"><ele>72.941455078125</ele><time>2025-07-14T02:31:40Z</time></trkpt><trkpt lat="-34.114624" lon="151.068242"><ele>72.5818359375</ele><time>2025-07-14T02:32:09Z</time></trkpt><trkpt lat="-34.114603" lon="151.068226"><ele>75.17088623046875</ele><time>2025-07-14T02:32:16Z</time></trkpt><trkpt lat="-34.114577" lon="151.068227"><ele>74.19041748046875</ele><time>2025-07-14T02:32:28Z</time></trkpt><trkpt lat="-34.114558" lon="151.068209"><ele>71.96812744140625</ele><time>2025-07-14T02:32:45Z</time></trkpt><trkpt lat="-34.114529" lon="151.068201"><ele>73.23973388671875</ele><time>2025-07-14T02:32:50Z</time></trkpt><trkpt lat="-34.114523" lon="151.0682"><ele>73.5070068359375</ele><time>2025-07-14T02:32:51Z</time></trkpt><trkpt lat="-34.114498" lon="151.06819"><ele>73.7621337890625</ele><time>2025-07-14T02:33:09Z</time></trkpt><trkpt lat="-34.114481" lon="151.068171"><ele>73.693408203125</ele><time>2025-07-14T02:33:12Z</time></trkpt><trkpt lat="-34.114412" lon="151.068154"><ele>72.76561279296875</ele><time>2025-07-14T02:33:21Z</time></trkpt><trkpt lat="-34.114453" lon="151.0682"><ele>71.678271484375</ele><time>2025-07-14T02:33:36Z</time></trkpt><trkpt lat="-34.114457" lon="151.068202"><ele>71.33580322265625</ele><time>2025-07-14T02:33:37Z</time></trkpt><trkpt lat="-34.114456" lon="151.068209"><ele>71.33323974609375</ele><time>2025-07-14T02:33:38Z</time></trkpt><trkpt lat="-34.114435" lon="151.068154"><ele>71.71202392578125</ele><time>2025-07-14T02:35:39Z</time></trkpt><trkpt lat="-34.114402" lon="151.068106"><ele>71.915185546875</ele><time>2025-07-14T02:35:51Z</time></trkpt><trkpt lat="-34.114378" lon="151.068097"><ele>74.6087890625</ele><time>2025-07-14T02:39:04Z</time></trkpt><trkpt lat="-34.114378" lon="151.068096"><ele>74.604638671875</ele><time>2025-07-14T02:39:05Z</time></trkpt><trkpt lat="-34.114404" lon="151.0681"><ele>73.7912841796875</ele><time>2025-07-14T02:39:15Z</time></trkpt><trkpt lat="-34.114483" lon="151.068184"><ele>74.4822265625</ele><time>2025-07-14T02:39:31Z</time></trkpt><trkpt lat="-34.114458" lon="151.068165"><ele>75.377490234375</ele><time>2025-07-14T02:41:19Z</time></trkpt><trkpt lat="-34.114454" lon="151.068159"><ele>75.02720947265625</ele><time>2025-07-14T02:41:20Z</time></trkpt><trkpt lat="-34.114408" lon="151.068118"><ele>75.25863037109374</ele><time>2025-07-14T02:41:38Z</time></trkpt><trkpt lat="-34.114382" lon="151.068121"><ele>75.2148681640625</ele><time>2025-07-14T02:41:45Z</time></trkpt><trkpt lat="-34.114353" lon="151.068075"><ele>75.8076416015625</ele><time>2025-07-14T02:44:38Z</time></trkpt><trkpt lat="-34.114309" lon="151.068034"><ele>74.86300048828124</ele><time>2025-07-14T02:45:03Z</time></trkpt><trkpt lat="-34.114305" lon="151.068028"><ele>75.345849609375</ele><time>2025-07-14T02:45:04Z</time></trkpt><trkpt lat="-34.114249" lon="151.067961"><ele>77.10726318359374</ele><time>2025-07-14T02:45:49Z</time></trkpt><trkpt lat="-34.1142" lon="151.067939"><ele>76.82381591796874</ele><time>2025-07-14T02:46:37Z</time></trkpt><trkpt lat="-34.114208" lon="151.067969"><ele>76.6594482421875</ele><time>2025-07-14T02:47:12Z</time></trkpt><trkpt lat="-34.114232" lon="151.067951"><ele>76.862939453125</ele><time>2025-07-14T02:47:25Z</time></trkpt><trkpt lat="-34.114232" lon="151.067949"><ele>76.68416748046874</ele><time>2025-07-14T02:47:26Z</time></trkpt><trkpt lat="-34.114207" lon="151.06794"><ele>76.59908447265624</ele><time>2025-07-14T02:47:46Z</time></trkpt><trkpt lat="-34.114281" lon="151.068014"><ele>73.0122314453125</ele><time>2025-07-14T02:48:55Z</time></trkpt><trkpt lat="-34.114332" lon="151.068047"><ele>73.50618896484374</ele><time>2025-07-14T02:49:03Z</time></trkpt><trkpt lat="-34.114338" lon="151.068051"><ele>73.59957275390624</ele><time>2025-07-14T02:49:04Z</time></trkpt><trkpt lat="-34.114361" lon="151.068109"><ele>76.813134765625</ele><time>2025-07-14T02:49:15Z</time></trkpt><trkpt lat="-34.114384" lon="151.068123"><ele>76.05947265625</ele><time>2025-07-14T02:49:19Z</time></trkpt><trkpt lat="-34.114432" lon="151.068127"><ele>76.229296875</ele><time>2025-07-14T02:49:28Z</time></trkpt><trkpt lat="-34.114379" lon="151.068128"><ele>73.64632568359374</ele><time>2025-07-14T02:49:40Z</time></trkpt><trkpt lat="-34.114371" lon="151.068131"><ele>74.464501953125</ele><time>2025-07-14T02:49:41Z</time></trkpt><trkpt lat="-34.114369" lon="151.068114"><ele>75.34365234375</ele><time>2025-07-14T03:01:50Z</time></trkpt><trkpt lat="-34.114393" lon="151.068102"><ele>75.96077880859374</ele><time>2025-07-14T03:01:55Z</time></trkpt><trkpt lat="-34.114414" lon="151.068107"><ele>76.5080810546875</ele><time>2025-07-14T03:01:59Z</time></trkpt><trkpt lat="-34.114443" lon="151.068151"><ele>76.71715087890625</ele><time>2025-07-14T03:02:11Z</time></trkpt><trkpt lat="-34.11447" lon="151.068172"><ele>76.65086669921875</ele><time>2025-07-14T03:02:22Z</time></trkpt><trkpt lat="-34.114479" lon="151.068171"><ele>76.703662109375</ele><time>2025-07-14T03:02:23Z</time></trkpt><trkpt lat="-34.114513" lon="151.068169"><ele>76.255908203125</ele><time>2025-07-14T03:02:26Z</time></trkpt><trkpt lat="-34.114613" lon="151.068194"><ele>76.44005126953125</ele><time>2025-07-14T03:02:43Z</time></trkpt><trkpt lat="-34.114653" lon="151.068242"><ele>77.07225341796875</ele><time>2025-07-14T03:02:57Z</time></trkpt><trkpt lat="-34.114658" lon="151.068247"><ele>77.0594970703125</ele><time>2025-07-14T03:02:58Z</time></trkpt><trkpt lat="-34.114703" lon="151.068228"><ele>77.82744140625</ele><time>2025-07-14T03:03:17Z</time></trkpt><trkpt lat="-34.114755" lon="151.068232"><ele>77.400927734375</ele><time>2025-07-14T03:03:41Z</time></trkpt><trkpt lat="-34.114803" lon="151.06825"><ele>77.8700439453125</ele><time>2025-07-14T03:03:51Z</time></trkpt><trkpt lat="-34.114838" lon="151.068244"><ele>78.3640625</ele><time>2025-07-14T03:03:59Z</time></trkpt><trkpt lat="-34.114846" lon="151.068243"><ele>78.56236572265625</ele><time>2025-07-14T03:04:00Z</time></trkpt><trkpt lat="-34.114893" lon="151.068228"><ele>79.68748779296875</ele><time>2025-07-14T03:04:07Z</time></trkpt><trkpt lat="-34.114913" lon="151.068236"><ele>79.47056884765625</ele><time>2025-07-14T03:04:10Z</time></trkpt><trkpt lat="-34.114938" lon="151.068226"><ele>78.4327880859375</ele><time>2025-07-14T03:04:15Z</time></trkpt><trkpt lat="-34.114967" lon="151.068301"><ele>75.5399658203125</ele><time>2025-07-14T03:04:40Z</time></trkpt><trkpt lat="-34.114966" lon="151.068304"><ele>75.5216552734375</ele><time>2025-07-14T03:04:41Z</time></trkpt><trkpt lat="-34.114965" lon="151.068366"><ele>75.941455078125</ele><time>2025-07-14T03:05:08Z</time></trkpt><trkpt lat="-34.114982" lon="151.068391"><ele>76.84019775390625</ele><time>2025-07-14T03:05:18Z</time></trkpt><trkpt lat="-34.115005" lon="151.068395"><ele>77.28050537109375</ele><time>2025-07-14T03:05:22Z</time></trkpt><trkpt lat="-34.114981" lon="151.068409"><ele>79.5394775390625</ele><time>2025-07-14T03:06:47Z</time></trkpt><trkpt lat="-34.114969" lon="151.068405"><ele>80.81322021484375</ele><time>2025-07-14T03:07:40Z</time></trkpt></trkseg></trk></gpx>