<?xml version="1.0" ?><gpx xmlns="http://www.topografix.com/GPX/1/1" creator="GaiaGPS" version="1.1" xmlns:xsi="http://www.w3.org/2001/XMLSchema-instance" xsi:schemaLocation="http://www.topografix.com/GPX/1/1 http://www.topografix.com/GPX/1/1/gpx.xsd"><trk><name>Club moss!</name><desc></desc><extensions><line xmlns="http://www.topografix.com/GPX/gpx_style/0/2"><color>FF9D00</color></line></extensions><trkseg><trkpt lat="-34.150663" lon="151.01519"><ele>136.94171142578125</ele><time>2025-06-09T04:08:58Z</time></trkpt><trkpt lat="-34.150647" lon="151.015115"><ele>115.1788818359375</ele><time>2025-06-09T04:08:59Z</time></trkpt><trkpt lat="-34.150662" lon="151.01508"><ele>108.1699462890625</ele><time>2025-06-09T04:09:00Z</time></trkpt><trkpt lat="-34.150689" lon="151.015081"><ele>98.95076904296874</ele><time>2025-06-09T04:09:04Z</time></trkpt><trkpt lat="-34.150685" lon="151.015064"><ele>101.3421875</ele><time>2025-06-09T04:09:07Z</time></trkpt><trkpt lat="-34.150685" lon="151.01506"><ele>102.10152587890624</ele><time>2025-06-09T04:09:08Z</time></trkpt><trkpt lat="-34.150644" lon="151.01507"><ele>110.43294677734374</ele><time>2025-06-09T04:09:30Z</time></trkpt><trkpt lat="-34.150625" lon="151.01509"><ele>113.97786865234374</ele><time>2025-06-09T04:09:43Z</time></trkpt><trkpt lat="-34.150537" lon="151.015035"><ele>111.48800048828124</ele><time>2025-06-09T04:10:57Z</time></trkpt><trkpt lat="-34.150529" lon="151.015034"><ele>110.38558349609374</ele><time>2025-06-09T04:10:58Z</time></trkpt><trkpt lat="-34.150502" lon="151.015034"><ele>109.6108642578125</ele><time>2025-06-09T04:11:02Z</time></trkpt><trkpt lat="-34.150549" lon="151.015036"><ele>111.30330810546874</ele><time>2025-06-09T04:11:10Z</time></trkpt><trkpt lat="-34.150556" lon="151.015005"><ele>111.6867919921875</ele><time>2025-06-09T04:11:18Z</time></trkpt><trkpt lat="-34.150641" lon="151.015019"><ele>114.21651611328124</ele><time>2025-06-09T04:11:27Z</time></trkpt><trkpt lat="-34.150669" lon="151.014994"><ele>115.94033203125</ele><time>2025-06-09T04:11:36Z</time></trkpt><trkpt lat="-34.150669" lon="151.014995"><ele>115.928857421875</ele><time>2025-06-09T04:11:37Z</time></trkpt><trkpt lat="-34.150686" lon="151.01501"><ele>115.4741455078125</ele><time>2025-06-09T04:11:49Z</time></trkpt><trkpt lat="-34.15071" lon="151.015011"><ele>115.93380126953124</ele><time>2025-06-09T04:11:53Z</time></trkpt><trkpt lat="-34.150723" lon="151.014983"><ele>115.30770263671874</ele><time>2025-06-09T04:11:57Z</time></trkpt><trkpt lat="-34.150745" lon="151.015002"><ele>117.13826904296874</ele><time>2025-06-09T04:12:10Z</time></trkpt><trkpt lat="-34.150751" lon="151.015029"><ele>121.63216552734374</ele><time>2025-06-09T04:12:36Z</time></trkpt><trkpt lat="-34.150775" lon="151.015041"><ele>121.17357177734375</ele><time>2025-06-09T04:12:57Z</time></trkpt><trkpt lat="-34.150766" lon="151.015073"><ele>124.3287841796875</ele><time>2025-06-09T04:13:06Z</time></trkpt><trkpt lat="-34.150754" lon="151.015064"><ele>123.58873291015625</ele><time>2025-06-09T04:13:07Z</time></trkpt><trkpt lat="-34.150746" lon="151.015064"><ele>122.9293701171875</ele><time>2025-06-09T04:13:08Z</time></trkpt><trkpt lat="-34.150736" lon="151.015084"><ele>124.948046875</ele><time>2025-06-09T04:13:12Z</time></trkpt><trkpt lat="-34.150741" lon="151.015138"><ele>127.0</ele><time>2025-06-09T04:13:34Z</time></trkpt><trkpt lat="-34.150743" lon="151.015077"><ele>128.6033203125</ele><time>2025-06-09T04:13:39Z</time></trkpt><trkpt lat="-34.150708" lon="151.015199"><ele>131.10374755859374</ele><time>2025-06-09T04:13:50Z</time></trkpt><trkpt lat="-34.150703" lon="151.015219"><ele>130.2941162109375</ele><time>2025-06-09T04:13:51Z</time></trkpt><trkpt lat="-34.150688" lon="151.015267"><ele>129.3326904296875</ele><time>2025-06-09T04:13:54Z</time></trkpt><trkpt lat="-34.150663" lon="151.015289"><ele>129.2548095703125</ele><time>2025-06-09T04:13:56Z</time></trkpt><trkpt lat="-34.150667" lon="151.015311"><ele>128.51512451171874</ele><time>2025-06-09T04:13:57Z</time></trkpt><trkpt lat="-34.1507" lon="151.015367"><ele>128.0436279296875</ele><time>2025-06-09T04:14:02Z</time></trkpt><trkpt lat="-34.150724" lon="151.015387"><ele>128.5402099609375</ele><time>2025-06-09T04:14:05Z</time></trkpt><trkpt lat="-34.150739" lon="151.015353"><ele>127.7330810546875</ele><time>2025-06-09T04:14:06Z</time></trkpt><trkpt lat="-34.150719" lon="151.015323"><ele>127.4987060546875</ele><time>2025-06-09T04:14:07Z</time></trkpt><trkpt lat="-34.150712" lon="151.015322"><ele>127.5388671875</ele><time>2025-06-09T04:14:08Z</time></trkpt><trkpt lat="-34.150732" lon="151.015324"><ele>129.91905517578124</ele><time>2025-06-09T04:14:13Z</time></trkpt><trkpt lat="-34.150732" lon="151.015297"><ele>127.57335205078125</ele><time>2025-06-09T04:15:07Z</time></trkpt><trkpt lat="-34.150722" lon="151.015271"><ele>128.0360595703125</ele><time>2025-06-09T04:15:12Z</time></trkpt><trkpt lat="-34.150701" lon="151.015261"><ele>127.058642578125</ele><time>2025-06-09T04:15:15Z</time></trkpt><trkpt lat="-34.150684" lon="151.015209"><ele>126.3671142578125</ele><time>2025-06-09T04:15:25Z</time></trkpt><trkpt lat="-34.150697" lon="151.015171"><ele>125.300341796875</ele><time>2025-06-09T04:15:27Z</time></trkpt><trkpt lat="-34.1507" lon="151.015164"><ele>125.312548828125</ele><time>2025-06-09T04:15:28Z</time></trkpt><trkpt lat="-34.150675" lon="151.015128"><ele>123.62132568359375</ele><time>2025-06-09T04:15:39Z</time></trkpt><trkpt lat="-34.150609" lon="151.01508"><ele>123.92562255859374</ele><time>2025-06-09T04:15:51Z</time></trkpt><trkpt lat="-34.150611" lon="151.015048"><ele>122.9902587890625</ele><time>2025-06-09T04:15:54Z</time></trkpt><trkpt lat="-34.150628" lon="151.015127"><ele>126.28072509765624</ele><time>2025-06-09T04:15:57Z</time></trkpt><trkpt lat="-34.150629" lon="151.015135"><ele>126.2759033203125</ele><time>2025-06-09T04:15:58Z</time></trkpt><trkpt lat="-34.150617" lon="151.015115"><ele>122.93221435546874</ele><time>2025-06-09T04:16:02Z</time></trkpt><trkpt lat="-34.150637" lon="151.015124"><ele>124.03798828125</ele><time>2025-06-09T04:16:17Z</time></trkpt><trkpt lat="-34.150667" lon="151.01511"><ele>125.40267333984374</ele><time>2025-06-09T04:16:34Z</time></trkpt><trkpt lat="-34.150656" lon="151.015129"><ele>126.70986328125</ele><time>2025-06-09T04:16:36Z</time></trkpt><trkpt lat="-34.150681" lon="151.015139"><ele>125.9611083984375</ele><time>2025-06-09T04:16:40Z</time></trkpt><trkpt lat="-34.150771" lon="151.015086"><ele>125.28050537109375</ele><time>2025-06-09T04:16:55Z</time></trkpt><trkpt lat="-34.150792" lon="151.015103"><ele>126.29783935546875</ele><time>2025-06-09T04:16:56Z</time></trkpt><trkpt lat="-34.150791" lon="151.015095"><ele>126.1390869140625</ele><time>2025-06-09T04:16:57Z</time></trkpt><trkpt lat="-34.150805" lon="151.015077"><ele>127.49779052734375</ele><time>2025-06-09T04:16:59Z</time></trkpt><trkpt lat="-34.150805" lon="151.015056"><ele>127.0936767578125</ele><time>2025-06-09T04:17:00Z</time></trkpt><trkpt lat="-34.150772" lon="151.015002"><ele>126.33629150390625</ele><time>2025-06-09T04:17:07Z</time></trkpt><trkpt lat="-34.150754" lon="151.014979"><ele>126.0420166015625</ele><time>2025-06-09T04:17:13Z</time></trkpt><trkpt lat="-34.15073" lon="151.014974"><ele>125.974267578125</ele><time>2025-06-09T04:17:15Z</time></trkpt><trkpt lat="-34.15071" lon="151.014994"><ele>122.3540283203125</ele><time>2025-06-09T04:17:24Z</time></trkpt><trkpt lat="-34.15072" lon="151.015006"><ele>123.4675537109375</ele><time>2025-06-09T04:17:25Z</time></trkpt><trkpt lat="-34.150723" lon="151.01501"><ele>123.30294189453124</ele><time>2025-06-09T04:17:26Z</time></trkpt><trkpt lat="-34.150711" lon="151.01504"><ele>124.998681640625</ele><time>2025-06-09T04:17:28Z</time></trkpt><trkpt lat="-34.150722" lon="151.015105"><ele>127.92470703125</ele><time>2025-06-09T04:17:31Z</time></trkpt><trkpt lat="-34.150718" lon="151.015161"><ele>127.52470703125</ele><time>2025-06-09T04:17:33Z</time></trkpt><trkpt lat="-34.15073" lon="151.0152"><ele>126.87230224609375</ele><time>2025-06-09T04:17:35Z</time></trkpt><trkpt lat="-34.150737" lon="151.015206"><ele>125.57469482421875</ele><time>2025-06-09T04:17:36Z</time></trkpt><trkpt lat="-34.150746" lon="151.015212"><ele>126.08330078125</ele><time>2025-06-09T04:17:37Z</time></trkpt><trkpt lat="-34.150741" lon="151.015243"><ele>127.38841552734375</ele><time>2025-06-09T04:17:44Z</time></trkpt><trkpt lat="-34.150763" lon="151.015257"><ele>127.93944091796875</ele><time>2025-06-09T04:17:51Z</time></trkpt><trkpt lat="-34.150746" lon="151.015274"><ele>124.3270751953125</ele><time>2025-06-09T04:18:05Z</time></trkpt><trkpt lat="-34.150743" lon="151.0153"><ele>125.665576171875</ele><time>2025-06-09T04:18:07Z</time></trkpt><trkpt lat="-34.150729" lon="151.015319"><ele>124.9098388671875</ele><time>2025-06-09T04:18:12Z</time></trkpt><trkpt lat="-34.150758" lon="151.015332"><ele>126.91868896484375</ele><time>2025-06-09T04:18:19Z</time></trkpt><trkpt lat="-34.150742" lon="151.015293"><ele>126.97703857421875</ele><time>2025-06-09T04:18:23Z</time></trkpt><trkpt lat="-34.15072" lon="151.015274"><ele>126.92833251953125</ele><time>2025-06-09T04:18:24Z</time></trkpt><trkpt lat="-34.15071" lon="151.015272"><ele>126.614794921875</ele><time>2025-06-09T04:18:25Z</time></trkpt><trkpt lat="-34.150708" lon="151.015254"><ele>124.6569091796875</ele><time>2025-06-09T04:18:26Z</time></trkpt><trkpt lat="-34.150634" lon="151.015192"><ele>124.4333984375</ele><time>2025-06-09T04:18:40Z</time></trkpt><trkpt lat="-34.150619" lon="151.015136"><ele>124.5573974609375</ele><time>2025-06-09T04:18:43Z</time></trkpt><trkpt lat="-34.150616" lon="151.015124"><ele>125.0306640625</ele><time>2025-06-09T04:18:44Z</time></trkpt><trkpt lat="-34.150624" lon="151.015103"><ele>126.71083984375</ele><time>2025-06-09T04:18:45Z</time></trkpt><trkpt lat="-34.150605" lon="151.015119"><ele>125.7556396484375</ele><time>2025-06-09T04:19:11Z</time></trkpt><trkpt lat="-34.150619" lon="151.015058"><ele>125.414453125</ele><time>2025-06-09T04:19:31Z</time></trkpt><trkpt lat="-34.150632" lon="151.015041"><ele>124.9243408203125</ele><time>2025-06-09T04:19:32Z</time></trkpt><trkpt lat="-34.150681" lon="151.015037"><ele>124.52425537109374</ele><time>2025-06-09T04:19:37Z</time></trkpt><trkpt lat="-34.150682" lon="151.015045"><ele>126.47420654296874</ele><time>2025-06-09T04:19:38Z</time></trkpt><trkpt lat="-34.150683" lon="151.015022"><ele>119.7302490234375</ele><time>2025-06-09T04:20:32Z</time></trkpt><trkpt lat="-34.150663" lon="151.015023"><ele>118.1576171875</ele><time>2025-06-09T04:20:37Z</time></trkpt><trkpt lat="-34.150676" lon="151.014998"><ele>117.346826171875</ele><time>2025-06-09T04:20:47Z</time></trkpt><trkpt lat="-34.150656" lon="151.014999"><ele>115.37392578125</ele><time>2025-06-09T04:20:52Z</time></trkpt><trkpt lat="-34.15064" lon="151.015022"><ele>114.27803955078124</ele><time>2025-06-09T04:20:54Z</time></trkpt><trkpt lat="-34.150621" lon="151.014999"><ele>113.9028564453125</ele><time>2025-06-09T04:20:59Z</time></trkpt><trkpt lat="-34.150644" lon="151.014979"><ele>116.3801513671875</ele><time>2025-06-09T04:21:12Z</time></trkpt><trkpt lat="-34.150648" lon="151.014982"><ele>117.14534912109374</ele><time>2025-06-09T04:21:13Z</time></trkpt><trkpt lat="-34.150656" lon="151.014978"><ele>116.87490234375</ele><time>2025-06-09T04:21:14Z</time></trkpt><trkpt lat="-34.150655" lon="151.015031"><ele>121.5478759765625</ele><time>2025-06-09T04:21:53Z</time></trkpt><trkpt lat="-34.150641" lon="151.015051"><ele>121.2666259765625</ele><time>2025-06-09T04:21:56Z</time></trkpt><trkpt lat="-34.150614" lon="151.015044"><ele>122.25185546875</ele><time>2025-06-09T04:22:01Z</time></trkpt><trkpt lat="-34.150639" lon="151.015045"><ele>113.7392822265625</ele><time>2025-06-09T04:22:51Z</time></trkpt><trkpt lat="-34.150634" lon="151.015075"><ele>114.58345947265624</ele><time>2025-06-09T04:23:02Z</time></trkpt><trkpt lat="-34.150652" lon="151.0151"><ele>114.688623046875</ele><time>2025-06-09T04:23:15Z</time></trkpt><trkpt lat="-34.150652" lon="151.015102"><ele>114.58602294921874</ele><time>2025-06-09T04:23:16Z</time></trkpt><trkpt lat="-34.150679" lon="151.015096"><ele>114.237939453125</ele><time>2025-06-09T04:23:21Z</time></trkpt><trkpt lat="-34.150699" lon="151.015118"><ele>115.71568603515625</ele><time>2025-06-09T04:23:27Z</time></trkpt><trkpt lat="-34.150672" lon="151.015121"><ele>114.64931640625</ele><time>2025-06-09T04:23:58Z</time></trkpt><trkpt lat="-34.150693" lon="151.015102"><ele>117.349755859375</ele><time>2025-06-09T04:24:27Z</time></trkpt><trkpt lat="-34.150718" lon="151.0151"><ele>117.27806396484375</ele><time>2025-06-09T04:24:36Z</time></trkpt><trkpt lat="-34.150704" lon="151.015159"><ele>116.9811279296875</ele><time>2025-06-09T04:24:56Z</time></trkpt><trkpt lat="-34.150704" lon="151.01516"><ele>117.13212890625</ele><time>2025-06-09T04:24:57Z</time></trkpt><trkpt lat="-34.150675" lon="151.015204"><ele>118.3109619140625</ele><time>2025-06-09T04:25:21Z</time></trkpt><trkpt lat="-34.150683" lon="151.015262"><ele>118.231494140625</ele><time>2025-06-09T04:25:31Z</time></trkpt><trkpt lat="-34.150725" lon="151.015271"><ele>117.72142333984375</ele><time>2025-06-09T04:25:45Z</time></trkpt><trkpt lat="-34.150743" lon="151.015241"><ele>115.8162109375</ele><time>2025-06-09T04:25:50Z</time></trkpt><trkpt lat="-34.150747" lon="151.015235"><ele>115.856982421875</ele><time>2025-06-09T04:25:51Z</time></trkpt><trkpt lat="-34.150752" lon="151.015229"><ele>116.0670654296875</ele><time>2025-06-09T04:25:52Z</time></trkpt><trkpt lat="-34.150773" lon="151.015244"><ele>115.68858642578125</ele><time>2025-06-09T04:25:58Z</time></trkpt><trkpt lat="-34.150828" lon="151.015199"><ele>115.5055419921875</ele><time>2025-06-09T04:26:08Z</time></trkpt><trkpt lat="-34.150852" lon="151.015211"><ele>116.74461669921875</ele><time>2025-06-09T04:26:13Z</time></trkpt><trkpt lat="-34.150831" lon="151.015211"><ele>114.8617431640625</ele><time>2025-06-09T04:26:30Z</time></trkpt><trkpt lat="-34.150805" lon="151.015189"><ele>113.3212158203125</ele><time>2025-06-09T04:26:35Z</time></trkpt><trkpt lat="-34.150802" lon="151.015179"><ele>113.04088134765625</ele><time>2025-06-09T04:26:36Z</time></trkpt><trkpt lat="-34.150803" lon="151.015172"><ele>113.378955078125</ele><time>2025-06-09T04:26:37Z</time></trkpt><trkpt lat="-34.150854" lon="151.015185"><ele>115.6195556640625</ele><time>2025-06-09T04:26:56Z</time></trkpt><trkpt lat="-34.150872" lon="151.015207"><ele>114.52061767578125</ele><time>2025-06-09T04:27:04Z</time></trkpt><trkpt lat="-34.150896" lon="151.015213"><ele>113.8461181640625</ele><time>2025-06-09T04:27:16Z</time></trkpt><trkpt lat="-34.150913" lon="151.01523"><ele>113.3680908203125</ele><time>2025-06-09T04:27:19Z</time></trkpt><trkpt lat="-34.150918" lon="151.015178"><ele>119.17296142578125</ele><time>2025-06-09T04:28:26Z</time></trkpt><trkpt lat="-34.15093" lon="151.015466"><ele>119.862353515625</ele><time>2025-06-09T04:28:34Z</time></trkpt><trkpt lat="-34.150919" lon="151.015391"><ele>113.546435546875</ele><time>2025-06-09T04:28:35Z</time></trkpt><trkpt lat="-34.150914" lon="151.015321"><ele>111.89580078125</ele><time>2025-06-09T04:28:38Z</time></trkpt><trkpt lat="-34.150906" lon="151.015355"><ele>114.48314208984375</ele><time>2025-06-09T04:28:39Z</time></trkpt><trkpt lat="-34.15089" lon="151.015372"><ele>110.7904541015625</ele><time>2025-06-09T04:28:41Z</time></trkpt><trkpt lat="-34.150868" lon="151.015371"><ele>110.27354736328125</ele><time>2025-06-09T04:28:43Z</time></trkpt><trkpt lat="-34.150863" lon="151.015339"><ele>111.981005859375</ele><time>2025-06-09T04:28:52Z</time></trkpt><trkpt lat="-34.15084" lon="151.015322"><ele>114.60679931640625</ele><time>2025-06-09T04:29:05Z</time></trkpt><trkpt lat="-34.15084" lon="151.015308"><ele>114.0045654296875</ele><time>2025-06-09T04:29:06Z</time></trkpt><trkpt lat="-34.150789" lon="151.015289"><ele>111.6422607421875</ele><time>2025-06-09T04:29:18Z</time></trkpt><trkpt lat="-34.150813" lon="151.015289"><ele>107.46226806640625</ele><time>2025-06-09T04:29:32Z</time></trkpt><trkpt lat="-34.150829" lon="151.015275"><ele>106.25487060546875</ele><time>2025-06-09T04:29:34Z</time></trkpt><trkpt lat="-34.150837" lon="151.015249"><ele>105.880419921875</ele><time>2025-06-09T04:29:36Z</time></trkpt><trkpt lat="-34.150853" lon="151.015236"><ele>105.24840087890625</ele><time>2025-06-09T04:29:38Z</time></trkpt><trkpt lat="-34.150822" lon="151.01523"><ele>108.3197509765625</ele><time>2025-06-09T04:30:18Z</time></trkpt><trkpt lat="-34.150819" lon="151.015224"><ele>108.9791748046875</ele><time>2025-06-09T04:30:19Z</time></trkpt><trkpt lat="-34.150824" lon="151.015163"><ele>108.48619384765625</ele><time>2025-06-09T04:30:26Z</time></trkpt><trkpt lat="-34.150785" lon="151.015137"><ele>109.22899169921875</ele><time>2025-06-09T04:30:32Z</time></trkpt><trkpt lat="-34.150809" lon="151.015129"><ele>114.131640625</ele><time>2025-06-09T04:30:38Z</time></trkpt><trkpt lat="-34.150831" lon="151.015142"><ele>115.52098388671875</ele><time>2025-06-09T04:30:41Z</time></trkpt><trkpt lat="-34.150824" lon="151.015212"><ele>116.60301513671875</ele><time>2025-06-09T04:30:43Z</time></trkpt><trkpt lat="-34.150821" lon="151.015231"><ele>117.16319580078125</ele><time>2025-06-09T04:30:44Z</time></trkpt><trkpt lat="-34.15082" lon="151.01524"><ele>118.32384033203125</ele><time>2025-06-09T04:30:45Z</time></trkpt><trkpt lat="-34.150812" lon="151.015184"><ele>119.41783447265625</ele><time>2025-06-09T04:30:55Z</time></trkpt><trkpt lat="-34.150835" lon="151.01516"><ele>119.40599365234375</ele><time>2025-06-09T04:30:57Z</time></trkpt><trkpt lat="-34.150855" lon="151.015072"><ele>114.9540283203125</ele><time>2025-06-09T04:31:03Z</time></trkpt><trkpt lat="-34.150856" lon="151.015061"><ele>114.727099609375</ele><time>2025-06-09T04:31:04Z</time></trkpt><trkpt lat="-34.150858" lon="151.014997"><ele>113.4364501953125</ele><time>2025-06-09T04:31:11Z</time></trkpt><trkpt lat="-34.150896" lon="151.014965"><ele>116.2191650390625</ele><time>2025-06-09T04:31:16Z</time></trkpt><trkpt lat="-34.150949" lon="151.014892"><ele>116.3036376953125</ele><time>2025-06-09T04:31:26Z</time></trkpt><trkpt lat="-34.150946" lon="151.014883"><ele>115.52421875</ele><time>2025-06-09T04:31:27Z</time></trkpt><trkpt lat="-34.150931" lon="151.014831"><ele>118.83226318359375</ele><time>2025-06-09T04:31:32Z</time></trkpt><trkpt lat="-34.15095" lon="151.014808"><ele>119.1459228515625</ele><time>2025-06-09T04:31:34Z</time></trkpt><trkpt lat="-34.150991" lon="151.014786"><ele>120.16307373046875</ele><time>2025-06-09T04:31:37Z</time></trkpt><trkpt lat="-34.151022" lon="151.014789"><ele>119.80302734375</ele><time>2025-06-09T04:31:39Z</time></trkpt><trkpt lat="-34.151031" lon="151.014795"><ele>120.60692138671875</ele><time>2025-06-09T04:31:40Z</time></trkpt><trkpt lat="-34.151038" lon="151.014804"><ele>120.781298828125</ele><time>2025-06-09T04:31:41Z</time></trkpt><trkpt lat="-34.151031" lon="151.014776"><ele>120.639697265625</ele><time>2025-06-09T04:31:46Z</time></trkpt><trkpt lat="-34.151011" lon="151.014758"><ele>120.17589111328125</ele><time>2025-06-09T04:31:48Z</time></trkpt><trkpt lat="-34.150948" lon="151.014734"><ele>120.16451416015624</ele><time>2025-06-09T04:31:51Z</time></trkpt><trkpt lat="-34.1509" lon="151.014663"><ele>120.44814453125</ele><time>2025-06-09T04:31:58Z</time></trkpt><trkpt lat="-34.150894" lon="151.014655"><ele>120.7962890625</ele><time>2025-06-09T04:31:59Z</time></trkpt><trkpt lat="-34.150802" lon="151.014493"><ele>122.41646728515624</ele><time>2025-06-09T04:32:13Z</time></trkpt><trkpt lat="-34.150794" lon="151.014478"><ele>123.358544921875</ele><time>2025-06-09T04:32:14Z</time></trkpt><trkpt lat="-34.150703" lon="151.014272"><ele>132.33907470703124</ele><time>2025-06-09T04:32:30Z</time></trkpt><trkpt lat="-34.150699" lon="151.01426"><ele>132.036767578125</ele><time>2025-06-09T04:32:31Z</time></trkpt><trkpt lat="-34.15065" lon="151.014082"><ele>132.93721923828124</ele><time>2025-06-09T04:32:50Z</time></trkpt><trkpt lat="-34.150646" lon="151.01406"><ele>133.0713134765625</ele><time>2025-06-09T04:32:53Z</time></trkpt><trkpt lat="-34.150655" lon="151.014049"><ele>130.35732421875</ele><time>2025-06-09T04:32:54Z</time></trkpt><trkpt lat="-34.150669" lon="151.014053"><ele>128.22310791015624</ele><time>2025-06-09T04:32:55Z</time></trkpt><trkpt lat="-34.150699" lon="151.014249"><ele>127.248681640625</ele><time>2025-06-09T04:33:06Z</time></trkpt><trkpt lat="-34.1507" lon="151.014236"><ele>124.85</ele><time>2025-06-09T04:33:07Z</time></trkpt><trkpt lat="-34.150727" lon="151.014414"><ele>127.547021484375</ele><time>2025-06-09T04:33:16Z</time></trkpt><trkpt lat="-34.150731" lon="151.014431"><ele>127.54244384765624</ele><time>2025-06-09T04:33:17Z</time></trkpt><trkpt lat="-34.150766" lon="151.014531"><ele>129.01943359375</ele><time>2025-06-09T04:33:24Z</time></trkpt><trkpt lat="-34.150795" lon="151.014583"><ele>128.29317626953124</ele><time>2025-06-09T04:33:29Z</time></trkpt><trkpt lat="-34.1508" lon="151.014597"><ele>128.90047607421874</ele><time>2025-06-09T04:33:30Z</time></trkpt><trkpt lat="-34.150875" lon="151.014727"><ele>129.02498779296874</ele><time>2025-06-09T04:33:42Z</time></trkpt><trkpt lat="-34.150918" lon="151.01478"><ele>130.0737548828125</ele><time>2025-06-09T04:33:47Z</time></trkpt><trkpt lat="-34.150928" lon="151.014787"><ele>129.356591796875</ele><time>2025-06-09T04:33:48Z</time></trkpt><trkpt lat="-34.151066" lon="151.014965"><ele>130.0526611328125</ele><time>2025-06-09T04:34:04Z</time></trkpt><trkpt lat="-34.151078" lon="151.014973"><ele>129.1970703125</ele><time>2025-06-09T04:34:05Z</time></trkpt><trkpt lat="-34.151193" lon="151.015111"><ele>126.2418701171875</ele><time>2025-06-09T04:34:18Z</time></trkpt><trkpt lat="-34.151205" lon="151.01512"><ele>125.46470947265625</ele><time>2025-06-09T04:34:19Z</time></trkpt><trkpt lat="-34.15129" lon="151.015209"><ele>123.9945556640625</ele><time>2025-06-09T04:34:28Z</time></trkpt><trkpt lat="-34.151342" lon="151.015248"><ele>122.697314453125</ele><time>2025-06-09T04:34:33Z</time></trkpt><trkpt lat="-34.151352" lon="151.015255"><ele>121.91807861328125</ele><time>2025-06-09T04:34:34Z</time></trkpt><trkpt lat="-34.151467" lon="151.015368"><ele>118.9552490234375</ele><time>2025-06-09T04:34:47Z</time></trkpt><trkpt lat="-34.15148" lon="151.015341"><ele>117.97398681640625</ele><time>2025-06-09T04:34:52Z</time></trkpt><trkpt lat="-34.151444" lon="151.015356"><ele>117.9969970703125</ele><time>2025-06-09T04:34:53Z</time></trkpt><trkpt lat="-34.151435" lon="151.015373"><ele>117.9332763671875</ele><time>2025-06-09T04:34:54Z</time></trkpt><trkpt lat="-34.151435" lon="151.015363"><ele>114.9890625</ele><time>2025-06-09T04:34:55Z</time></trkpt><trkpt lat="-34.151449" lon="151.01539"><ele>117.0177490234375</ele><time>2025-06-09T04:35:37Z</time></trkpt><trkpt lat="-34.151436" lon="151.015416"><ele>121.5343505859375</ele><time>2025-06-09T04:35:55Z</time></trkpt><trkpt lat="-34.151459" lon="151.015412"><ele>121.1241943359375</ele><time>2025-06-09T04:36:05Z</time></trkpt><trkpt lat="-34.151443" lon="151.015388"><ele>121.14677734375</ele><time>2025-06-09T04:36:44Z</time></trkpt><trkpt lat="-34.15142" lon="151.015383"><ele>120.5929443359375</ele><time>2025-06-09T04:36:47Z</time></trkpt><trkpt lat="-34.151404" lon="151.015365"><ele>119.6215087890625</ele><time>2025-06-09T04:36:49Z</time></trkpt><trkpt lat="-34.151395" lon="151.015325"><ele>120.39024658203125</ele><time>2025-06-09T04:36:53Z</time></trkpt><trkpt lat="-34.15139" lon="151.015308"><ele>120.8888427734375</ele><time>2025-06-09T04:36:54Z</time></trkpt><trkpt lat="-34.151368" lon="151.015279"><ele>120.77135009765625</ele><time>2025-06-09T04:36:57Z</time></trkpt><trkpt lat="-34.151329" lon="151.015185"><ele>118.1853515625</ele><time>2025-06-09T04:37:05Z</time></trkpt><trkpt lat="-34.151294" lon="151.015139"><ele>119.6290771484375</ele><time>2025-06-09T04:37:11Z</time></trkpt><trkpt lat="-34.151288" lon="151.015131"><ele>118.8064453125</ele><time>2025-06-09T04:37:12Z</time></trkpt><trkpt lat="-34.15127" lon="151.015098"><ele>117.81328125</ele><time>2025-06-09T04:37:15Z</time></trkpt><trkpt lat="-34.151256" lon="151.015027"><ele>117.6429931640625</ele><time>2025-06-09T04:37:19Z</time></trkpt><trkpt lat="-34.151237" lon="151.015011"><ele>118.39580078125</ele><time>2025-06-09T04:37:21Z</time></trkpt></trkseg></trk></gpx>