<?xml version="1.0" ?><gpx xmlns="http://www.topografix.com/GPX/1/1" creator="GaiaGPS" version="1.1" xmlns:xsi="http://www.w3.org/2001/XMLSchema-instance" xsi:schemaLocation="http://www.topografix.com/GPX/1/1 http://www.topografix.com/GPX/1/1/gpx.xsd"><trk><name>Eucalyptus scias </name><desc></desc><extensions><line xmlns="http://www.topografix.com/GPX/gpx_style/0/2"><color>2D3FC7</color></line></extensions><trkseg><trkpt lat="-34.195606" lon="151.025155"><ele>269.6</ele><time>2025-07-28T00:59:16Z</time></trkpt><trkpt lat="-34.195613" lon="151.025201"><ele>269.6</ele><time>2025-07-28T00:59:17Z</time></trkpt><trkpt lat="-34.195607" lon="151.025243"><ele>268.0</ele><time>2025-07-28T00:59:20Z</time></trkpt><trkpt lat="-34.195461" lon="151.025372"><ele>270.0</ele><time>2025-07-28T00:59:37Z</time></trkpt><trkpt lat="-34.195418" lon="151.025387"><ele>270.0</ele><time>2025-07-28T00:59:42Z</time></trkpt><trkpt lat="-34.195369" lon="151.025428"><ele>270.0</ele><time>2025-07-28T00:59:49Z</time></trkpt><trkpt lat="-34.195334" lon="151.025435"><ele>270.0</ele><time>2025-07-28T00:59:51Z</time></trkpt><trkpt lat="-34.195313" lon="151.025512"><ele>270.0</ele><time>2025-07-28T00:59:57Z</time></trkpt><trkpt lat="-34.195103" lon="151.025795"><ele>273.0</ele><time>2025-07-28T01:00:26Z</time></trkpt><trkpt lat="-34.195071" lon="151.025878"><ele>273.0</ele><time>2025-07-28T01:00:33Z</time></trkpt><trkpt lat="-34.195024" lon="151.025942"><ele>266.0</ele><time>2025-07-28T01:00:48Z</time></trkpt><trkpt lat="-34.195021" lon="151.025994"><ele>276.0</ele><time>2025-07-28T01:01:03Z</time></trkpt><trkpt lat="-34.194975" lon="151.026119"><ele>273.0</ele><time>2025-07-28T01:01:23Z</time></trkpt><trkpt lat="-34.194918" lon="151.026183"><ele>274.0</ele><time>2025-07-28T01:01:58Z</time></trkpt><trkpt lat="-34.1949" lon="151.026223"><ele>276.0</ele><time>2025-07-28T01:02:52Z</time></trkpt><trkpt lat="-34.194919" lon="151.026172"><ele>275.0</ele><time>2025-07-28T01:04:07Z</time></trkpt><trkpt lat="-34.194904" lon="151.026215"><ele>275.0</ele><time>2025-07-28T01:04:35Z</time></trkpt><trkpt lat="-34.194844" lon="151.02623"><ele>276.0</ele><time>2025-07-28T01:04:45Z</time></trkpt><trkpt lat="-34.194804" lon="151.026288"><ele>279.0</ele><time>2025-07-28T01:04:56Z</time></trkpt><trkpt lat="-34.194771" lon="151.026311"><ele>279.0</ele><time>2025-07-28T01:05:01Z</time></trkpt><trkpt lat="-34.194725" lon="151.026311"><ele>272.0</ele><time>2025-07-28T01:06:01Z</time></trkpt><trkpt lat="-34.194738" lon="151.026359"><ele>280.0</ele><time>2025-07-28T01:07:04Z</time></trkpt><trkpt lat="-34.194725" lon="151.026377"><ele>279.0</ele><time>2025-07-28T01:07:20Z</time></trkpt><trkpt lat="-34.194709" lon="151.026332"><ele>277.0</ele><time>2025-07-28T01:07:38Z</time></trkpt><trkpt lat="-34.194687" lon="151.026364"><ele>279.0</ele><time>2025-07-28T01:07:47Z</time></trkpt><trkpt lat="-34.19467" lon="151.026424"><ele>280.0</ele><time>2025-07-28T01:07:53Z</time></trkpt><trkpt lat="-34.194622" lon="151.026456"><ele>280.0</ele><time>2025-07-28T01:07:59Z</time></trkpt><trkpt lat="-34.194579" lon="151.026523"><ele>282.0</ele><time>2025-07-28T01:08:04Z</time></trkpt><trkpt lat="-34.194491" lon="151.026618"><ele>280.0</ele><time>2025-07-28T01:08:20Z</time></trkpt><trkpt lat="-34.194453" lon="151.026639"><ele>281.0</ele><time>2025-07-28T01:08:40Z</time></trkpt><trkpt lat="-34.194406" lon="151.026689"><ele>283.0</ele><time>2025-07-28T01:09:21Z</time></trkpt><trkpt lat="-34.194365" lon="151.02666"><ele>283.0</ele><time>2025-07-28T01:09:28Z</time></trkpt><trkpt lat="-34.194322" lon="151.026648"><ele>281.0</ele><time>2025-07-28T01:09:32Z</time></trkpt><trkpt lat="-34.194075" lon="151.026711"><ele>282.0</ele><time>2025-07-28T01:11:16Z</time></trkpt><trkpt lat="-34.19399" lon="151.026825"><ele>280.0</ele><time>2025-07-28T01:11:31Z</time></trkpt><trkpt lat="-34.19399" lon="151.026915"><ele>276.0</ele><time>2025-07-28T01:12:33Z</time></trkpt><trkpt lat="-34.194034" lon="151.02686"><ele>278.0</ele><time>2025-07-28T01:13:09Z</time></trkpt><trkpt lat="-34.194075" lon="151.026896"><ele>282.0</ele><time>2025-07-28T01:16:27Z</time></trkpt><trkpt lat="-34.194069" lon="151.026931"><ele>283.0</ele><time>2025-07-28T01:17:37Z</time></trkpt><trkpt lat="-34.194031" lon="151.026968"><ele>282.0</ele><time>2025-07-28T01:18:16Z</time></trkpt><trkpt lat="-34.193989" lon="151.027075"><ele>279.0</ele><time>2025-07-28T01:18:48Z</time></trkpt><trkpt lat="-34.193957" lon="151.027095"><ele>281.0</ele><time>2025-07-28T01:19:13Z</time></trkpt><trkpt lat="-34.193934" lon="151.027126"><ele>282.0</ele><time>2025-07-28T01:19:18Z</time></trkpt><trkpt lat="-34.193891" lon="151.027241"><ele>280.0</ele><time>2025-07-28T01:19:29Z</time></trkpt><trkpt lat="-34.193797" lon="151.027394"><ele>284.0</ele><time>2025-07-28T01:19:43Z</time></trkpt><trkpt lat="-34.193778" lon="151.027521"><ele>285.0</ele><time>2025-07-28T01:19:54Z</time></trkpt><trkpt lat="-34.193753" lon="151.027594"><ele>285.0</ele><time>2025-07-28T01:20:02Z</time></trkpt><trkpt lat="-34.193742" lon="151.027663"><ele>285.0</ele><time>2025-07-28T01:20:07Z</time></trkpt><trkpt lat="-34.193655" lon="151.027863"><ele>286.0</ele><time>2025-07-28T01:20:26Z</time></trkpt><trkpt lat="-34.19365" lon="151.027896"><ele>285.0</ele><time>2025-07-28T01:20:28Z</time></trkpt><trkpt lat="-34.193701" lon="151.028024"><ele>288.0</ele><time>2025-07-28T01:20:41Z</time></trkpt><trkpt lat="-34.193746" lon="151.028069"><ele>288.0</ele><time>2025-07-28T01:21:36Z</time></trkpt><trkpt lat="-34.193754" lon="151.028097"><ele>288.0</ele><time>2025-07-28T01:22:00Z</time></trkpt><trkpt lat="-34.193837" lon="151.028219"><ele>288.0</ele><time>2025-07-28T01:22:13Z</time></trkpt><trkpt lat="-34.193857" lon="151.028266"><ele>289.4</ele><time>2025-07-28T01:22:18Z</time></trkpt><trkpt lat="-34.193843" lon="151.028406"><ele>285.0</ele><time>2025-07-28T01:22:31Z</time></trkpt><trkpt lat="-34.193798" lon="151.028422"><ele>288.0</ele><time>2025-07-28T01:23:05Z</time></trkpt><trkpt lat="-34.193785" lon="151.028423"><ele>288.0</ele><time>2025-07-28T01:25:41Z</time></trkpt><trkpt lat="-34.193726" lon="151.028454"><ele>290.0</ele><time>2025-07-28T01:26:27Z</time></trkpt><trkpt lat="-34.193683" lon="151.028515"><ele>290.0</ele><time>2025-07-28T01:26:37Z</time></trkpt><trkpt lat="-34.193639" lon="151.028558"><ele>288.0</ele><time>2025-07-28T01:26:43Z</time></trkpt><trkpt lat="-34.193478" lon="151.028801"><ele>290.0</ele><time>2025-07-28T01:27:26Z</time></trkpt><trkpt lat="-34.193323" lon="151.028926"><ele>292.0</ele><time>2025-07-28T01:27:55Z</time></trkpt><trkpt lat="-34.193167" lon="151.029032"><ele>285.0</ele><time>2025-07-28T01:29:42Z</time></trkpt><trkpt lat="-34.193173" lon="151.029018"><ele>291.0</ele><time>2025-07-28T01:30:59Z</time></trkpt><trkpt lat="-34.193063" lon="151.029029"><ele>292.0</ele><time>2025-07-28T01:31:16Z</time></trkpt><trkpt lat="-34.193007" lon="151.02906"><ele>290.0</ele><time>2025-07-28T01:31:24Z</time></trkpt><trkpt lat="-34.192945" lon="151.029071"><ele>292.0</ele><time>2025-07-28T01:31:33Z</time></trkpt><trkpt lat="-34.19289" lon="151.029153"><ele>292.0</ele><time>2025-07-28T01:31:48Z</time></trkpt><trkpt lat="-34.192802" lon="151.029208"><ele>292.0</ele><time>2025-07-28T01:33:09Z</time></trkpt><trkpt lat="-34.192739" lon="151.029233"><ele>288.0</ele><time>2025-07-28T01:33:16Z</time></trkpt><trkpt lat="-34.192691" lon="151.029283"><ele>294.7</ele><time>2025-07-28T01:33:31Z</time></trkpt><trkpt lat="-34.192718" lon="151.029303"><ele>291.0</ele><time>2025-07-28T01:33:47Z</time></trkpt><trkpt lat="-34.192692" lon="151.029235"><ele>292.0</ele><time>2025-07-28T01:35:10Z</time></trkpt><trkpt lat="-34.192831" lon="151.029133"><ele>288.0</ele><time>2025-07-28T01:35:31Z</time></trkpt><trkpt lat="-34.192873" lon="151.029128"><ele>292.0</ele><time>2025-07-28T01:35:57Z</time></trkpt><trkpt lat="-34.192905" lon="151.029138"><ele>280.0</ele><time>2025-07-28T01:36:23Z</time></trkpt><trkpt lat="-34.192932" lon="151.029172"><ele>286.0</ele><time>2025-07-28T01:36:35Z</time></trkpt><trkpt lat="-34.192938" lon="151.029208"><ele>292.0</ele><time>2025-07-28T01:36:47Z</time></trkpt><trkpt lat="-34.192958" lon="151.02912"><ele>288.0</ele><time>2025-07-28T01:38:07Z</time></trkpt><trkpt lat="-34.192931" lon="151.029152"><ele>288.0</ele><time>2025-07-28T01:38:50Z</time></trkpt><trkpt lat="-34.192877" lon="151.029157"><ele>288.0</ele><time>2025-07-28T01:41:01Z</time></trkpt><trkpt lat="-34.192875" lon="151.029096"><ele>292.0</ele><time>2025-07-28T01:41:58Z</time></trkpt><trkpt lat="-34.192837" lon="151.029108"><ele>291.0</ele><time>2025-07-28T01:42:43Z</time></trkpt><trkpt lat="-34.192837" lon="151.029074"><ele>293.4</ele><time>2025-07-28T01:43:01Z</time></trkpt><trkpt lat="-34.192825" lon="151.029101"><ele>290.0</ele><time>2025-07-28T01:43:21Z</time></trkpt><trkpt lat="-34.192889" lon="151.029155"><ele>291.0</ele><time>2025-07-28T01:43:33Z</time></trkpt><trkpt lat="-34.192888" lon="151.029212"><ele>284.0</ele><time>2025-07-28T01:44:30Z</time></trkpt><trkpt lat="-34.192896" lon="151.029181"><ele>289.0</ele><time>2025-07-28T01:45:03Z</time></trkpt><trkpt lat="-34.192931" lon="151.029154"><ele>288.0</ele><time>2025-07-28T01:45:49Z</time></trkpt><trkpt lat="-34.192935" lon="151.029206"><ele>291.0</ele><time>2025-07-28T01:46:15Z</time></trkpt><trkpt lat="-34.192911" lon="151.029233"><ele>291.0</ele><time>2025-07-28T01:46:18Z</time></trkpt><trkpt lat="-34.19282" lon="151.029228"><ele>287.0</ele><time>2025-07-28T01:46:47Z</time></trkpt><trkpt lat="-34.192787" lon="151.029241"><ele>292.0</ele><time>2025-07-28T01:47:06Z</time></trkpt><trkpt lat="-34.192728" lon="151.029334"><ele>292.0</ele><time>2025-07-28T01:47:18Z</time></trkpt><trkpt lat="-34.192638" lon="151.029383"><ele>294.0</ele><time>2025-07-28T01:47:42Z</time></trkpt><trkpt lat="-34.192591" lon="151.029352"><ele>288.0</ele><time>2025-07-28T01:48:01Z</time></trkpt><trkpt lat="-34.192587" lon="151.029315"><ele>296.0</ele><time>2025-07-28T01:48:11Z</time></trkpt><trkpt lat="-34.192552" lon="151.029318"><ele>295.0</ele><time>2025-07-28T01:48:15Z</time></trkpt><trkpt lat="-34.192523" lon="151.029348"><ele>297.0</ele><time>2025-07-28T01:48:19Z</time></trkpt><trkpt lat="-34.192512" lon="151.02939"><ele>296.0</ele><time>2025-07-28T01:48:37Z</time></trkpt><trkpt lat="-34.19247" lon="151.02944"><ele>294.0</ele><time>2025-07-28T01:48:49Z</time></trkpt><trkpt lat="-34.192408" lon="151.029469"><ele>295.0</ele><time>2025-07-28T01:48:59Z</time></trkpt><trkpt lat="-34.192376" lon="151.029545"><ele>297.0</ele><time>2025-07-28T01:49:24Z</time></trkpt><trkpt lat="-34.192315" lon="151.02956"><ele>300.0</ele><time>2025-07-28T01:49:37Z</time></trkpt><trkpt lat="-34.192276" lon="151.029583"><ele>296.0</ele><time>2025-07-28T01:49:42Z</time></trkpt><trkpt lat="-34.192283" lon="151.029544"><ele>296.0</ele><time>2025-07-28T01:50:19Z</time></trkpt><trkpt lat="-34.192214" lon="151.029602"><ele>300.0</ele><time>2025-07-28T01:51:03Z</time></trkpt><trkpt lat="-34.192147" lon="151.029612"><ele>292.0</ele><time>2025-07-28T01:52:54Z</time></trkpt><trkpt lat="-34.19212" lon="151.029677"><ele>300.0</ele><time>2025-07-28T01:53:33Z</time></trkpt><trkpt lat="-34.192138" lon="151.029661"><ele>300.0</ele><time>2025-07-28T01:53:47Z</time></trkpt><trkpt lat="-34.192121" lon="151.029528"><ele>300.0</ele><time>2025-07-28T01:55:34Z</time></trkpt><trkpt lat="-34.192112" lon="151.029565"><ele>301.0</ele><time>2025-07-28T01:56:24Z</time></trkpt><trkpt lat="-34.192137" lon="151.029594"><ele>300.0</ele><time>2025-07-28T01:57:11Z</time></trkpt><trkpt lat="-34.19214" lon="151.029657"><ele>297.0</ele><time>2025-07-28T01:58:45Z</time></trkpt><trkpt lat="-34.192167" lon="151.029674"><ele>300.0</ele><time>2025-07-28T01:59:22Z</time></trkpt><trkpt lat="-34.192178" lon="151.029751"><ele>297.0</ele><time>2025-07-28T01:59:45Z</time></trkpt><trkpt lat="-34.192196" lon="151.029719"><ele>302.0</ele><time>2025-07-28T02:00:07Z</time></trkpt><trkpt lat="-34.192158" lon="151.029624"><ele>300.0</ele><time>2025-07-28T02:00:39Z</time></trkpt><trkpt lat="-34.192191" lon="151.029599"><ele>299.0</ele><time>2025-07-28T02:01:04Z</time></trkpt><trkpt lat="-34.192126" lon="151.029776"><ele>300.0</ele><time>2025-07-28T02:01:36Z</time></trkpt><trkpt lat="-34.192131" lon="151.029806"><ele>300.0</ele><time>2025-07-28T02:01:38Z</time></trkpt><trkpt lat="-34.192116" lon="151.029861"><ele>301.4</ele><time>2025-07-28T02:01:49Z</time></trkpt><trkpt lat="-34.192093" lon="151.029864"><ele>300.0</ele><time>2025-07-28T02:01:51Z</time></trkpt><trkpt lat="-34.192059" lon="151.029889"><ele>300.0</ele><time>2025-07-28T02:02:05Z</time></trkpt><trkpt lat="-34.192029" lon="151.029956"><ele>301.0</ele><time>2025-07-28T02:02:13Z</time></trkpt><trkpt lat="-34.191999" lon="151.029963"><ele>300.0</ele><time>2025-07-28T02:02:18Z</time></trkpt><trkpt lat="-34.19195" lon="151.030004"><ele>300.0</ele><time>2025-07-28T02:02:26Z</time></trkpt><trkpt lat="-34.191882" lon="151.030098"><ele>300.0</ele><time>2025-07-28T02:02:39Z</time></trkpt><trkpt lat="-34.191794" lon="151.030164"><ele>300.0</ele><time>2025-07-28T02:03:42Z</time></trkpt><trkpt lat="-34.191677" lon="151.030228"><ele>300.0</ele><time>2025-07-28T02:04:31Z</time></trkpt><trkpt lat="-34.191685" lon="151.030262"><ele>288.0</ele><time>2025-07-28T02:04:51Z</time></trkpt><trkpt lat="-34.191625" lon="151.030261"><ele>299.0</ele><time>2025-07-28T02:06:58Z</time></trkpt><trkpt lat="-34.191648" lon="151.030208"><ele>298.0</ele><time>2025-07-28T02:12:21Z</time></trkpt><trkpt lat="-34.191683" lon="151.030243"><ele>294.0</ele><time>2025-07-28T02:12:29Z</time></trkpt><trkpt lat="-34.191731" lon="151.030231"><ele>294.0</ele><time>2025-07-28T02:12:44Z</time></trkpt><trkpt lat="-34.191661" lon="151.030155"><ele>300.0</ele><time>2025-07-28T02:13:11Z</time></trkpt><trkpt lat="-34.191684" lon="151.030162"><ele>300.0</ele><time>2025-07-28T02:13:23Z</time></trkpt><trkpt lat="-34.191674" lon="151.030203"><ele>294.0</ele><time>2025-07-28T02:13:57Z</time></trkpt><trkpt lat="-34.191681" lon="151.030234"><ele>300.0</ele><time>2025-07-28T02:14:01Z</time></trkpt><trkpt lat="-34.191712" lon="151.030246"><ele>295.0</ele><time>2025-07-28T02:14:17Z</time></trkpt><trkpt lat="-34.191795" lon="151.030264"><ele>300.0</ele><time>2025-07-28T02:14:39Z</time></trkpt><trkpt lat="-34.191824" lon="151.030211"><ele>300.0</ele><time>2025-07-28T02:14:51Z</time></trkpt><trkpt lat="-34.191821" lon="151.030177"><ele>301.0</ele><time>2025-07-28T02:14:55Z</time></trkpt><trkpt lat="-34.191778" lon="151.030141"><ele>300.0</ele><time>2025-07-28T02:15:08Z</time></trkpt><trkpt lat="-34.191738" lon="151.030189"><ele>296.0</ele><time>2025-07-28T02:15:20Z</time></trkpt><trkpt lat="-34.19169" lon="151.030295"><ele>300.0</ele><time>2025-07-28T02:17:10Z</time></trkpt><trkpt lat="-34.191666" lon="151.030315"><ele>300.0</ele><time>2025-07-28T02:17:14Z</time></trkpt><trkpt lat="-34.19159" lon="151.030346"><ele>298.0</ele><time>2025-07-28T02:17:33Z</time></trkpt><trkpt lat="-34.191563" lon="151.030447"><ele>295.0</ele><time>2025-07-28T02:17:49Z</time></trkpt><trkpt lat="-34.191518" lon="151.030493"><ele>294.0</ele><time>2025-07-28T02:17:58Z</time></trkpt><trkpt lat="-34.191525" lon="151.030631"><ele>296.0</ele><time>2025-07-28T02:18:14Z</time></trkpt><trkpt lat="-34.191468" lon="151.030818"><ele>293.0</ele><time>2025-07-28T02:19:13Z</time></trkpt><trkpt lat="-34.191461" lon="151.030805"><ele>291.0</ele><time>2025-07-28T02:19:40Z</time></trkpt><trkpt lat="-34.191467" lon="151.030839"><ele>294.0</ele><time>2025-07-28T02:20:04Z</time></trkpt><trkpt lat="-34.19146" lon="151.030904"><ele>294.0</ele><time>2025-07-28T02:20:19Z</time></trkpt><trkpt lat="-34.191486" lon="151.030974"><ele>291.0</ele><time>2025-07-28T02:20:26Z</time></trkpt><trkpt lat="-34.191473" lon="151.031009"><ele>292.0</ele><time>2025-07-28T02:20:29Z</time></trkpt><trkpt lat="-34.191494" lon="151.031065"><ele>292.0</ele><time>2025-07-28T02:20:37Z</time></trkpt><trkpt lat="-34.191486" lon="151.031305"><ele>287.7</ele><time>2025-07-28T02:21:01Z</time></trkpt><trkpt lat="-34.191505" lon="151.031353"><ele>285.0</ele><time>2025-07-28T02:21:07Z</time></trkpt><trkpt lat="-34.191501" lon="151.031427"><ele>282.0</ele><time>2025-07-28T02:21:13Z</time></trkpt><trkpt lat="-34.191465" lon="151.031487"><ele>282.0</ele><time>2025-07-28T02:21:20Z</time></trkpt><trkpt lat="-34.191406" lon="151.031629"><ele>282.0</ele><time>2025-07-28T02:21:34Z</time></trkpt><trkpt lat="-34.191394" lon="151.031682"><ele>281.0</ele><time>2025-07-28T02:21:37Z</time></trkpt><trkpt lat="-34.191333" lon="151.031745"><ele>280.0</ele><time>2025-07-28T02:21:49Z</time></trkpt><trkpt lat="-34.19133" lon="151.031777"><ele>273.0</ele><time>2025-07-28T02:21:58Z</time></trkpt><trkpt lat="-34.191344" lon="151.031804"><ele>277.0</ele><time>2025-07-28T02:22:07Z</time></trkpt><trkpt lat="-34.191242" lon="151.032095"><ele>276.0</ele><time>2025-07-28T02:22:36Z</time></trkpt><trkpt lat="-34.191209" lon="151.032306"><ele>264.0</ele><time>2025-07-28T02:23:11Z</time></trkpt><trkpt lat="-34.19118" lon="151.032288"><ele>270.0</ele><time>2025-07-28T02:26:31Z</time></trkpt><trkpt lat="-34.191126" lon="151.032328"><ele>272.0</ele><time>2025-07-28T02:46:19Z</time></trkpt><trkpt lat="-34.191084" lon="151.032385"><ele>272.0</ele><time>2025-07-28T02:53:16Z</time></trkpt><trkpt lat="-34.191071" lon="151.032426"><ele>273.0</ele><time>2025-07-28T02:53:19Z</time></trkpt><trkpt lat="-34.190994" lon="151.032514"><ele>272.0</ele><time>2025-07-28T02:53:40Z</time></trkpt><trkpt lat="-34.190993" lon="151.032538"><ele>272.0</ele><time>2025-07-28T02:57:37Z</time></trkpt><trkpt lat="-34.190991" lon="151.032475"><ele>273.0</ele><time>2025-07-28T02:58:11Z</time></trkpt><trkpt lat="-34.190905" lon="151.032336"><ele>274.0</ele><time>2025-07-28T02:58:15Z</time></trkpt><trkpt lat="-34.190933" lon="151.032378"><ele>277.0</ele><time>2025-07-28T03:01:55Z</time></trkpt><trkpt lat="-34.190953" lon="151.032435"><ele>277.0</ele><time>2025-07-28T03:10:15Z</time></trkpt><trkpt lat="-34.190929" lon="151.032483"><ele>276.0</ele><time>2025-07-28T03:10:20Z</time></trkpt><trkpt lat="-34.190967" lon="151.032548"><ele>275.0</ele><time>2025-07-28T03:11:05Z</time></trkpt><trkpt lat="-34.190961" lon="151.032593"><ele>275.5</ele><time>2025-07-28T03:11:10Z</time></trkpt><trkpt lat="-34.191012" lon="151.032621"><ele>268.0</ele><time>2025-07-28T03:11:59Z</time></trkpt><trkpt lat="-34.190969" lon="151.032605"><ele>273.0</ele><time>2025-07-28T03:12:54Z</time></trkpt><trkpt lat="-34.191009" lon="151.032586"><ele>272.0</ele><time>2025-07-28T03:13:07Z</time></trkpt><trkpt lat="-34.191043" lon="151.032554"><ele>273.5</ele><time>2025-07-28T03:13:12Z</time></trkpt></trkseg></trk></gpx>